{"type":"FeatureCollection","properties":{"exceededTransferLimit":true},"features":[{"type":"Feature","id":372,"geometry":{"type":"Polygon","coordinates":[[[6.950698,8.471507],[6.950188,8.47152],[6.949487,8.471613],[6.949047,8.471701],[6.948233,8.471889],[6.947416,8.471957],[6.94724,8.471708],[6.946898,8.471397],[6.946748,8.471031],[6.946684,8.470551],[6.946441,8.470445],[6.946128,8.470297],[6.945735,8.470022],[6.945479,8.469888],[6.945094,8.46981],[6.944915,8.469867],[6.944751,8.470064],[6.944602,8.470417],[6.944036,8.470001],[6.943014,8.469495],[6.942531,8.469437],[6.943252,8.470367],[6.94338,8.470984],[6.943779,8.47133],[6.944492,8.471817],[6.94539,8.471792],[6.946714,8.472799],[6.947142,8.473198],[6.947308,8.474468],[6.948449,8.474068],[6.951563,8.47341],[6.953725,8.472893],[6.95423,8.472782],[6.953251,8.47239],[6.950837,8.471563],[6.950698,8.471507]]]},"properties":{"FID":372,"globalid":"19c8c6dc-b311-432b-92f9-f9e68c515295","uniq_id":499613,"timestamp":1552694400000,"editor":"oluseye.abraham","wardname":"Central Abaji","wardcode":"FCTABJ02","lganame":"Abaji","lgacode":"15001","statename":"Fct","statecode":"FC","amapcode":"NIE FCT ABJ","status":"Operational Validated","source":"INEC","urban":"Yes","Shape__Area":1.8867764119079311E-05,"Shape__Length":0.02841004695597249}},{"type":"Feature","id":381,"geometry":{"type":"Polygon","coordinates":[[[7.4797,9.112043],[7.504759,9.099728],[7.506331,9.097424],[7.50809,9.094889],[7.509188,9.092821],[7.506654,9.089229],[7.503905,9.082796],[7.503247,9.076014],[7.501392,9.073609],[7.495576,9.069449],[7.491792,9.066966],[7.489457,9.062658],[7.484806,9.060071],[7.481127,9.059007],[7.477729,9.058374],[7.474918,9.057415],[7.471492,9.05467],[7.469941,9.049926],[7.46357,9.047252],[7.455237,9.046424],[7.453878,9.05121],[7.453772,9.056364],[7.453509,9.059626],[7.452123,9.065832],[7.451682,9.067897],[7.452011,9.070965],[7.452595,9.072741],[7.45403,9.075548],[7.456601,9.077968],[7.460471,9.081292],[7.462853,9.083365],[7.469626,9.087424],[7.472075,9.089437],[7.474038,9.092175],[7.475884,9.097547],[7.480337,9.109308],[7.4797,9.112043]]]},"properties":{"FID":381,"globalid":"241c4110-996e-4866-90f6-b751e41bcada","uniq_id":499621,"timestamp":1552694400000,"editor":"oluseye.abraham","wardname":"Wuse","wardcode":"FCTABC12","lganame":"Municipal Area Council","lgacode":"15006","statename":"Fct","statecode":"FC","amapcode":"NIE FCT ABC","status":"Operational Validated","source":"INEC","urban":"Yes","Shape__Area":0.0019648478395950519,"Shape__Length":0.19147074055490462}},{"type":"Feature","id":819,"geometry":{"type":"Polygon","coordinates":[[[7.218133,9.09227],[7.218145,9.091383],[7.217883,9.089372],[7.217657,9.088397],[7.216729,9.08616],[7.215218,9.087017],[7.214295,9.087661],[7.21408,9.08781],[7.213603,9.088094],[7.213139,9.088201],[7.212711,9.088358],[7.212504,9.08783],[7.212211,9.087922],[7.21184,9.088137],[7.212047,9.088622],[7.211097,9.089057],[7.210148,9.089607],[7.209992,9.089737],[7.209865,9.089843],[7.210362,9.090578],[7.210852,9.091059],[7.211342,9.091539],[7.211237,9.091863],[7.211202,9.091917],[7.210933,9.092329],[7.210925,9.092485],[7.211075,9.092863],[7.211097,9.093077],[7.21084,9.093527],[7.210961,9.093927],[7.21109,9.094166],[7.211111,9.094409],[7.210947,9.094559],[7.210561,9.09498],[7.210229,9.095476],[7.210194,9.09603],[7.210467,9.096316],[7.210892,9.096839],[7.211281,9.09733],[7.211508,9.097638],[7.211616,9.097808],[7.211889,9.098239],[7.211871,9.099117],[7.211812,9.101101],[7.211842,9.1016],[7.211988,9.1026],[7.212355,9.103509],[7.213252,9.105291],[7.21379,9.106058],[7.21422,9.106715],[7.214404,9.107283],[7.214402,9.108223],[7.214705,9.108271],[7.21517,9.108485],[7.216897,9.109706],[7.217474,9.110076],[7.217913,9.110307],[7.218538,9.110568],[7.220605,9.111238],[7.219758,9.11351],[7.220572,9.114656],[7.221005,9.115264],[7.221761,9.113601],[7.222962,9.111742],[7.222584,9.111071],[7.220701,9.107721],[7.219678,9.106174],[7.218821,9.104271],[7.217917,9.101082],[7.21782,9.099041],[7.217773,9.098069],[7.21799,9.096201],[7.218101,9.094731],[7.218133,9.09227]]]},"properties":{"FID":819,"globalid":"29a345b1-d79f-4f9b-a756-c1f40a07cbc3","uniq_id":500050,"timestamp":1552694400000,"editor":"oluseye.abraham","wardname":"Zuba","wardcode":"FCTGWA10","lganame":"Gwagwalada","lgacode":"15003","statename":"Fct","statecode":"FC","amapcode":"NIE FCT GWA","status":"Operational Validated","source":"INEC","urban":"Yes","Shape__Area":0.00015763543343183528,"Shape__Length":0.07230329917997344}},{"type":"Feature","id":820,"geometry":{"type":"Polygon","coordinates":[[[7.351495,9.140081],[7.343518,9.14368],[7.331683,9.142314],[7.323943,9.141421],[7.323578,9.141363],[7.323541,9.142708],[7.323565,9.14421],[7.323517,9.145196],[7.323898,9.146369],[7.324373,9.147354],[7.32492,9.148152],[7.325609,9.148622],[7.326346,9.148974],[7.32877,9.149701],[7.330363,9.150499],[7.331218,9.151273],[7.33022,9.151696],[7.330054,9.152007],[7.330042,9.152301],[7.329923,9.152641],[7.329923,9.153063],[7.330137,9.153286],[7.330018,9.153697],[7.329685,9.155023],[7.329075,9.156264],[7.328011,9.157995],[7.324151,9.156426],[7.323226,9.156248],[7.322261,9.15638],[7.32273,9.159751],[7.323158,9.161841],[7.324462,9.161677],[7.328264,9.162567],[7.333626,9.163637],[7.33587,9.164172],[7.339265,9.16487],[7.339318,9.166073],[7.344104,9.16585],[7.346481,9.165674],[7.350462,9.164853],[7.355869,9.163738],[7.357739,9.163133],[7.35918,9.162335],[7.358054,9.161766],[7.357095,9.16066],[7.357047,9.158245],[7.357672,9.157477],[7.358911,9.156512],[7.359399,9.15535],[7.360739,9.153802],[7.362637,9.152133],[7.363651,9.150928],[7.364492,9.150423],[7.365731,9.147643],[7.368167,9.145472],[7.369534,9.145003],[7.370455,9.144504],[7.363182,9.131926],[7.351495,9.140081]]]},"properties":{"FID":820,"globalid":"d4fbff11-00ca-4731-a063-4344b3fc104d","uniq_id":500051,"timestamp":1552694400000,"editor":"oluseye.abraham","wardname":"Usuma","wardcode":"FCTBWR10","lganame":"Bwari","lgacode":"15002","statename":"Fct","statecode":"FC","amapcode":"NIE FCT BWR","status":"Operational Validated","source":"INEC","urban":"Yes","Shape__Area":0.00090373690962053388,"Shape__Length":0.15442960622113489}},{"type":"Feature","id":3854,"geometry":{"type":"Polygon","coordinates":[[[7.21408,9.08781],[7.214295,9.087661],[7.215218,9.087017],[7.216729,9.08616],[7.217657,9.088397],[7.217883,9.089372],[7.218145,9.091383],[7.218133,9.09227],[7.242225,9.100154],[7.249257,9.10246],[7.256178,9.09305],[7.263496,9.081933],[7.272742,9.074637],[7.284751,9.069642],[7.286462,9.063274],[7.290084,9.058436],[7.296051,9.055097],[7.302349,9.05489],[7.306493,9.055515],[7.311296,9.059291],[7.313371,9.061605],[7.315543,9.061768],[7.318305,9.061917],[7.320514,9.063033],[7.321983,9.063559],[7.322315,9.064207],[7.322109,9.066206],[7.323604,9.066488],[7.325067,9.066045],[7.325209,9.067492],[7.326495,9.068547],[7.325829,9.07023],[7.323432,9.072041],[7.321779,9.07418],[7.320374,9.075888],[7.319596,9.077242],[7.319275,9.078379],[7.317146,9.078763],[7.314475,9.078869],[7.313849,9.079842],[7.314062,9.082],[7.315188,9.084527],[7.315623,9.085594],[7.317053,9.085803],[7.317628,9.085705],[7.318056,9.086242],[7.318742,9.085719],[7.32182,9.084513],[7.323504,9.083582],[7.325899,9.081249],[7.32765,9.079991],[7.329311,9.079002],[7.333688,9.077489],[7.339505,9.075549],[7.341703,9.074536],[7.345285,9.073176],[7.349909,9.071169],[7.354559,9.069929],[7.35563,9.070041],[7.35907,9.070463],[7.359953,9.070442],[7.360517,9.070296],[7.362419,9.069653],[7.363473,9.069179],[7.364108,9.068674],[7.36533,9.067649],[7.366006,9.067036],[7.36651,9.066707],[7.367667,9.066279],[7.368675,9.065987],[7.370076,9.065948],[7.371593,9.065995],[7.374552,9.065682],[7.377558,9.065014],[7.378882,9.065575],[7.37984,9.065192],[7.38066,9.064137],[7.382089,9.063517],[7.384141,9.062126],[7.384794,9.060837],[7.385733,9.056957],[7.387162,9.057601],[7.388176,9.059144],[7.391722,9.058443],[7.390203,9.054369],[7.389578,9.049642],[7.389095,9.045412],[7.388292,9.043055],[7.392199,9.042173],[7.398314,9.040265],[7.402535,9.038522],[7.412045,9.036249],[7.410879,9.02589],[7.407764,9.024623],[7.393488,9.024587],[7.382385,9.027656],[7.375882,9.030558],[7.353147,9.023651],[7.345204,9.018792],[7.337326,9.01195],[7.330719,9.00961],[7.323352,9.003225],[7.32086,8.999782],[7.321613,8.997396],[7.32262,8.995905],[7.32315,8.994654],[7.322758,8.994035],[7.321156,8.994031],[7.320575,8.993033],[7.317843,8.983693],[7.314955,8.978471],[7.306191,8.983607],[7.289553,8.994523],[7.274104,9.005791],[7.268637,9.02058],[7.263646,9.026214],[7.261507,9.034664],[7.258655,9.048982],[7.246533,9.060953],[7.235362,9.066586],[7.219073,9.063069],[7.209803,9.080316],[7.214049,9.087746],[7.214072,9.087788],[7.21408,9.08781]]]},"properties":{"FID":3854,"globalid":"480d7ed6-555a-4331-98a0-12afcfbd97d7","uniq_id":496706,"timestamp":1552694400000,"editor":"oluseye.abraham","wardname":"Jiwa","wardcode":"FCTABC06","lganame":"Municipal Area Council","lgacode":"15006","statename":"Fct","statecode":"FC","amapcode":"NIE FCT ABC","status":"Operational Not Validated","source":"INEC","urban":"No","Shape__Area":0.0095340628364724012,"Shape__Length":0.60827098789107348}},{"type":"Feature","id":3856,"geometry":{"type":"Polygon","coordinates":[[[7.323578,9.141363],[7.323943,9.141421],[7.331683,9.142314],[7.330091,9.13908],[7.32989,9.137612],[7.328536,9.136667],[7.327434,9.1357],[7.326688,9.135872],[7.325841,9.137024],[7.32499,9.137335],[7.324183,9.136587],[7.322449,9.135538],[7.322064,9.134262],[7.320896,9.131683],[7.319873,9.130764],[7.320085,9.128583],[7.319203,9.127437],[7.318742,9.125289],[7.318212,9.124614],[7.314738,9.12512],[7.314241,9.124518],[7.314565,9.123625],[7.315348,9.123099],[7.315705,9.122221],[7.315238,9.121432],[7.314149,9.120873],[7.313566,9.118887],[7.313961,9.118364],[7.315595,9.118196],[7.31584,9.117402],[7.315594,9.114712],[7.315178,9.110811],[7.315353,9.108545],[7.315402,9.106838],[7.314742,9.105503],[7.314516,9.104243],[7.314907,9.103705],[7.316446,9.103014],[7.317942,9.101768],[7.320916,9.099196],[7.321114,9.098383],[7.320291,9.097894],[7.318039,9.094691],[7.318093,9.093923],[7.318694,9.092894],[7.31851,9.09174],[7.318897,9.09102],[7.320792,9.089109],[7.320636,9.087342],[7.320034,9.086538],[7.319182,9.086618],[7.318056,9.086242],[7.317628,9.085705],[7.317053,9.085803],[7.315623,9.085594],[7.315188,9.084527],[7.314062,9.082],[7.313849,9.079842],[7.314475,9.078869],[7.317146,9.078763],[7.319275,9.078379],[7.319596,9.077242],[7.320374,9.075888],[7.321779,9.07418],[7.323432,9.072041],[7.325829,9.07023],[7.326495,9.068547],[7.325209,9.067492],[7.325067,9.066045],[7.323604,9.066488],[7.322109,9.066206],[7.322315,9.064207],[7.321983,9.063559],[7.320514,9.063033],[7.318305,9.061917],[7.315543,9.061768],[7.313371,9.061605],[7.311296,9.059291],[7.306493,9.055515],[7.302349,9.05489],[7.296051,9.055097],[7.290084,9.058436],[7.286462,9.063274],[7.284751,9.069642],[7.272742,9.074637],[7.263496,9.081933],[7.256178,9.09305],[7.249257,9.10246],[7.253766,9.106777],[7.260242,9.113468],[7.271385,9.126404],[7.27771,9.132797],[7.282379,9.135622],[7.288854,9.137109],[7.303156,9.138139],[7.323578,9.141363]]]},"properties":{"FID":3856,"globalid":"f0a51799-55e6-4ade-8977-45bcddc40cf1","uniq_id":496704,"timestamp":1552694400000,"editor":"oluseye.abraham","wardname":"Gwagwa","wardcode":"FCTABC04","lganame":"Municipal Area Council","lgacode":"15006","statename":"Fct","statecode":"FC","amapcode":"NIE FCT ABC","status":"Operational Validated","source":"INEC","urban":"No","Shape__Area":0.0041462820008533186,"Shape__Length":0.310921238428683}},{"type":"Feature","id":3857,"geometry":{"type":"Polygon","coordinates":[[[7.249257,9.10246],[7.242225,9.100154],[7.218133,9.09227],[7.218101,9.094731],[7.21799,9.096201],[7.217773,9.098069],[7.21782,9.099041],[7.217917,9.101082],[7.218821,9.104271],[7.219678,9.106174],[7.220701,9.107721],[7.222584,9.111071],[7.222962,9.111742],[7.221761,9.113601],[7.221005,9.115264],[7.222142,9.116864],[7.233981,9.133523],[7.249757,9.155722],[7.265379,9.177634],[7.281959,9.171921],[7.301865,9.168548],[7.309763,9.166868],[7.310276,9.16699],[7.310639,9.166872],[7.310658,9.166473],[7.312094,9.166452],[7.31211,9.16786],[7.312783,9.1679],[7.312795,9.166841],[7.314858,9.167185],[7.315333,9.167266],[7.315781,9.167405],[7.316781,9.166121],[7.317685,9.165801],[7.318055,9.164801],[7.31772,9.164359],[7.317868,9.163714],[7.318046,9.162746],[7.319502,9.160135],[7.322265,9.161928],[7.323158,9.161841],[7.32273,9.159751],[7.322261,9.15638],[7.323226,9.156248],[7.324151,9.156426],[7.328011,9.157995],[7.329075,9.156264],[7.329685,9.155023],[7.330018,9.153697],[7.330137,9.153286],[7.329923,9.153063],[7.329923,9.152641],[7.330042,9.152301],[7.330054,9.152007],[7.33022,9.151696],[7.331218,9.151273],[7.330363,9.150499],[7.32877,9.149701],[7.326346,9.148974],[7.325609,9.148622],[7.32492,9.148152],[7.324373,9.147354],[7.323898,9.146369],[7.323517,9.145196],[7.323565,9.14421],[7.323541,9.142708],[7.323578,9.141363],[7.303156,9.138139],[7.288854,9.137109],[7.282379,9.135622],[7.27771,9.132797],[7.271385,9.126404],[7.260242,9.113468],[7.253766,9.106777],[7.249257,9.10246]]]},"properties":{"FID":3857,"globalid":"7505da84-5814-420e-89f0-ee6770704c23","uniq_id":496707,"timestamp":1552694400000,"editor":"oluseye.abraham","wardname":"Kubwa","wardcode":"FCTBWR06","lganame":"Bwari","lgacode":"15002","statename":"Fct","statecode":"FC","amapcode":"NIE FCT BWR","status":"Operational Not Validated","source":"INEC","urban":"No","Shape__Area":0.00402678652175581,"Shape__Length":0.32442988575227127}},{"type":"Feature","id":3865,"geometry":{"type":"Polygon","coordinates":[[[7.265379,9.177634],[7.315784,9.248324],[7.33082,9.269412],[7.333952,9.263713],[7.337369,9.258288],[7.347321,9.246265],[7.349401,9.232923],[7.349698,9.222072],[7.3598,9.212981],[7.37145,9.198039],[7.367254,9.186375],[7.369607,9.184535],[7.368246,9.173788],[7.36786,9.166392],[7.35918,9.162335],[7.357739,9.163133],[7.355869,9.163738],[7.350462,9.164853],[7.346481,9.165674],[7.344104,9.16585],[7.339318,9.166073],[7.339265,9.16487],[7.33587,9.164172],[7.333626,9.163637],[7.328264,9.162567],[7.324462,9.161677],[7.323158,9.161841],[7.322265,9.161928],[7.319502,9.160135],[7.318046,9.162746],[7.317868,9.163714],[7.31772,9.164359],[7.318055,9.164801],[7.317685,9.165801],[7.316781,9.166121],[7.315781,9.167405],[7.315333,9.167266],[7.314858,9.167185],[7.312795,9.166841],[7.312783,9.1679],[7.31211,9.16786],[7.312094,9.166452],[7.310658,9.166473],[7.310639,9.166872],[7.310276,9.16699],[7.309763,9.166868],[7.301865,9.168548],[7.281959,9.171921],[7.265379,9.177634]]]},"properties":{"FID":3865,"globalid":"6703aafc-1414-4796-b9e9-6738de8a24e6","uniq_id":496709,"timestamp":1552694400000,"editor":"oluseye.abraham","wardname":"Byazhin","wardcode":"FCTBWR02","lganame":"Bwari","lgacode":"15002","statename":"Fct","statecode":"FC","amapcode":"NIE FCT BWR","status":"Operational Validated","source":"INEC","urban":"No","Shape__Area":0.0061877094582385439,"Shape__Length":0.34713866111481129}},{"type":"Feature","id":3866,"geometry":{"type":"Polygon","coordinates":[[[7.12631,9.18448],[7.142831,9.172088],[7.153823,9.163689],[7.167658,9.153118],[7.171663,9.150112],[7.179336,9.144246],[7.219758,9.11351],[7.220605,9.111238],[7.218538,9.110568],[7.217913,9.110307],[7.217474,9.110076],[7.216897,9.109706],[7.21517,9.108485],[7.214705,9.108271],[7.214402,9.108223],[7.214404,9.107283],[7.21422,9.106715],[7.21379,9.106058],[7.213252,9.105291],[7.212355,9.103509],[7.211988,9.1026],[7.211842,9.1016],[7.211812,9.101101],[7.211871,9.099117],[7.211889,9.098239],[7.211616,9.097808],[7.211508,9.097638],[7.211281,9.09733],[7.210892,9.096839],[7.210467,9.096316],[7.210194,9.09603],[7.210229,9.095476],[7.210561,9.09498],[7.210947,9.094559],[7.211111,9.094409],[7.21109,9.094166],[7.210961,9.093927],[7.21084,9.093527],[7.211097,9.093077],[7.211075,9.092863],[7.210925,9.092485],[7.210933,9.092329],[7.211202,9.091917],[7.211237,9.091863],[7.211342,9.091539],[7.210852,9.091059],[7.210362,9.090578],[7.209865,9.089843],[7.20905,9.089401],[7.207489,9.089554],[7.206575,9.086839],[7.206089,9.085104],[7.205727,9.082335],[7.193219,9.0821],[7.190427,9.082128],[7.186703,9.081287],[7.184785,9.081016],[7.18313,9.081432],[7.179818,9.081516],[7.176887,9.082133],[7.174436,9.081729],[7.172233,9.082365],[7.16974,9.083809],[7.165271,9.083879],[7.161357,9.082884],[7.158044,9.082366],[7.156164,9.082295],[7.156433,9.083421],[7.152508,9.084306],[7.151964,9.083288],[7.150929,9.083668],[7.14936,9.084206],[7.148099,9.084283],[7.146792,9.085216],[7.144157,9.086859],[7.142953,9.087806],[7.142619,9.088452],[7.14188,9.090251],[7.137049,9.094458],[7.122942,9.077749],[7.118479,9.075785],[7.084367,9.086445],[7.07473,9.102506],[7.089364,9.123208],[7.100071,9.165324],[7.104426,9.20125],[7.12631,9.18448]]]},"properties":{"FID":3866,"globalid":"5d4605fe-22a5-491f-a6c4-e9930ac6e16a","uniq_id":496710,"timestamp":1552694400000,"editor":"oluseye.abraham","wardname":"Ikwa","wardcode":"FCTGWA05","lganame":"Gwagwalada","lgacode":"15003","statename":"Fct","statecode":"FC","amapcode":"NIE FCT GWA","status":"Operational Not Validated","source":"INEC","urban":"No","Shape__Area":0.0097614714206102349,"Shape__Length":0.44734857894683056}},{"type":"Feature","id":4640,"geometry":{"type":"Polygon","coordinates":[[[7.204876,8.45805],[7.149361,8.451403],[7.133419,8.449494],[7.127233,8.453353],[7.110089,8.464046],[7.097811,8.471756],[7.080417,8.480038],[7.081342,8.541147],[7.077776,8.554368],[7.116959,8.578226],[7.144865,8.583119],[7.180818,8.580195],[7.201073,8.542323],[7.199884,8.509415],[7.204876,8.45805]]]},"properties":{"FID":4640,"globalid":"255e8643-0039-42e0-be2c-0d6cbff8da6b","uniq_id":491777,"timestamp":1552694400000,"editor":"oluseye.abraham","wardname":"Gwargwada","wardcode":"FCTKUJ04","lganame":"Kuje","lgacode":"15004","statename":"Fct","statecode":"FC","amapcode":"NIE FCT KUJ","status":"Operational Validated","source":"INEC","urban":"No","Shape__Area":0.013878302749056104,"Shape__Length":0.44579741097128461}},{"type":"Feature","id":5020,"geometry":{"type":"Polygon","coordinates":[[[7.303869,8.589328],[7.354376,8.537034],[7.380283,8.521521],[7.36531,8.487671],[7.313258,8.473566],[7.300852,8.470908],[7.270475,8.464398],[7.249015,8.462321],[7.204876,8.45805],[7.199884,8.509415],[7.201073,8.542323],[7.180818,8.580195],[7.236725,8.572877],[7.303869,8.589328]]]},"properties":{"FID":5020,"globalid":"6aba94a0-07cb-46fb-93e7-090087414c02","uniq_id":492713,"timestamp":1552694400000,"editor":"oluseye.abraham","wardname":"Gudunkarya","wardcode":"FCTKUJ03","lganame":"Kuje","lgacode":"15004","statename":"Fct","statecode":"FC","amapcode":"NIE FCT KUJ","status":"Operational Validated","source":"INEC","urban":"No","Shape__Area":0.017355907979247576,"Shape__Length":0.556499260911445}},{"type":"Feature","id":5514,"geometry":{"type":"Polygon","coordinates":[[[7.593613,8.848868],[7.592874,8.843549],[7.591669,8.834875],[7.565301,8.785279],[7.553079,8.762289],[7.541443,8.740403],[7.50198,8.668652],[7.496001,8.654302],[7.493228,8.650737],[7.484937,8.640077],[7.479259,8.632776],[7.477623,8.631333],[7.475593,8.632527],[7.465453,8.633061],[7.456913,8.634129],[7.450031,8.632931],[7.444638,8.631993],[7.434497,8.630393],[7.429694,8.633061],[7.429694,8.634109],[7.335326,8.639575],[7.342813,8.68046],[7.388735,8.729218],[7.452656,8.725833],[7.497339,8.730062],[7.49961,8.760086],[7.490537,8.765423],[7.4852,8.772361],[7.480397,8.784103],[7.479863,8.792109],[7.479689,8.792632],[7.490584,8.797834],[7.506746,8.810612],[7.523859,8.822637],[7.55143,8.839923],[7.593613,8.848868]]]},"properties":{"FID":5514,"globalid":"b4fdb2b6-f176-48e8-aa6a-47154e2f2003","uniq_id":492675,"timestamp":1552694400000,"editor":"oluseye.abraham","wardname":"Karshi 1","wardcode":"FCTABC08","lganame":"Municipal Area Council","lgacode":"15006","statename":"Fct","statecode":"FC","amapcode":"NIE FCT ABC","status":"Operational Not Validated","source":"INEC","urban":"No","Shape__Area":0.021710560711671434,"Shape__Length":0.81025770583476053}},{"type":"Feature","id":5517,"geometry":{"type":"Polygon","coordinates":[[[7.091101,8.944581],[7.090316,8.943491],[7.089866,8.943071],[7.08958,8.942804],[7.089378,8.942615],[7.089235,8.942265],[7.088375,8.941126],[7.088193,8.940987],[7.08789,8.940648],[7.087602,8.940169],[7.087402,8.940018],[7.087205,8.939742],[7.086791,8.939201],[7.086566,8.938941],[7.086205,8.938446],[7.086008,8.938197],[7.085824,8.938019],[7.085595,8.937792],[7.085425,8.937599],[7.085318,8.937545],[7.085192,8.937518],[7.085069,8.937393],[7.084473,8.936667],[7.084314,8.936326],[7.08424,8.935978],[7.084106,8.935657],[7.083806,8.935476],[7.083677,8.93541],[7.08341,8.935273],[7.083094,8.935177],[7.082899,8.935145],[7.082658,8.935106],[7.082442,8.935083],[7.082198,8.935059],[7.082006,8.935041],[7.081905,8.934937],[7.081911,8.934771],[7.081982,8.934487],[7.082101,8.933926],[7.082006,8.933379],[7.08219,8.933254],[7.082321,8.933046],[7.082077,8.932754],[7.081922,8.932356],[7.082047,8.932284],[7.082315,8.932469],[7.082674,8.932278],[7.082731,8.931764],[7.082589,8.930864],[7.083374,8.929908],[7.083543,8.929736],[7.083842,8.929433],[7.084215,8.929055],[7.08466,8.928604],[7.084924,8.928336],[7.085222,8.928033],[7.085373,8.92788],[7.086929,8.925311],[7.086272,8.922941],[7.086364,8.922046],[7.086079,8.919239],[7.085332,8.918172],[7.085079,8.917811],[7.083768,8.91765],[7.08013,8.91705],[7.080022,8.916577],[7.07681,8.912937],[7.073169,8.91258],[7.068886,8.909867],[7.065817,8.910866],[7.063416,8.908684],[7.061393,8.910291],[7.05949,8.909517],[7.055564,8.911897],[7.051054,8.915759],[7.047143,8.918871],[7.046879,8.920748],[7.047521,8.923282],[7.04927,8.92546],[7.049091,8.927673],[7.047735,8.9296],[7.045772,8.930599],[7.04388,8.929707],[7.041203,8.925781],[7.037891,8.925495],[7.034179,8.923725],[7.026299,8.924924],[7.022358,8.924182],[7.021287,8.925824],[7.021953,8.926786],[7.025071,8.932248],[7.023774,8.93375],[7.024332,8.934696],[7.02519,8.935861],[7.027034,8.937883],[7.028997,8.941393],[7.029235,8.943654],[7.026975,8.948115],[7.028981,8.947897],[7.03023,8.94873],[7.030855,8.949027],[7.030736,8.950455],[7.031746,8.950567],[7.032074,8.950603],[7.033436,8.94949],[7.035399,8.948895],[7.035846,8.94949],[7.037987,8.949193],[7.039742,8.947081],[7.042538,8.942946],[7.044471,8.942084],[7.045512,8.942917],[7.046892,8.942946],[7.048617,8.943452],[7.051889,8.947914],[7.053019,8.949074],[7.05415,8.949817],[7.055471,8.947037],[7.056484,8.945781],[7.0581,8.944996],[7.061575,8.945165],[7.062955,8.945238],[7.062855,8.94431],[7.064482,8.943154],[7.06591,8.943025],[7.06663,8.944403],[7.067087,8.945476],[7.066316,8.946457],[7.068401,8.948855],[7.068869,8.948484],[7.069621,8.947943],[7.070415,8.947393],[7.071613,8.94664],[7.073428,8.945999],[7.075543,8.945344],[7.076881,8.944978],[7.07759,8.944793],[7.078308,8.944624],[7.079086,8.944441],[7.079914,8.944317],[7.080502,8.944329],[7.08137,8.944346],[7.082116,8.944248],[7.082532,8.944194],[7.083942,8.944002],[7.08508,8.943882],[7.086103,8.943775],[7.087221,8.943866],[7.088218,8.943946],[7.08892,8.944003],[7.089815,8.94427],[7.090262,8.944403],[7.091101,8.944581]]]},"properties":{"FID":5517,"globalid":"1fefe631-ba11-42ef-9577-0b21349be480","uniq_id":492679,"timestamp":1552694400000,"editor":"oluseye.abraham","wardname":"Kutunku","wardcode":"FCTGWA06","lganame":"Gwagwalada","lgacode":"15003","statename":"Fct","statecode":"FC","amapcode":"NIE FCT GWA","status":"Operational Validated","source":"INEC","urban":"Yes","Shape__Area":0.0016894638717630528,"Shape__Length":0.23136468495905915}},{"type":"Feature","id":5520,"geometry":{"type":"Polygon","coordinates":[[[6.779962,8.580278],[6.802905,8.579686],[6.832732,8.582358],[6.835934,8.58129],[6.845007,8.581824],[6.850878,8.57969],[6.852479,8.577021],[6.856215,8.576488],[6.855194,8.566907],[6.853115,8.56015],[6.851332,8.556918],[6.851332,8.553099],[6.852818,8.54546],[6.848064,8.540172],[6.842122,8.537234],[6.835289,8.534295],[6.832021,8.527832],[6.832318,8.519311],[6.834992,8.509027],[6.8341,8.505207],[6.832318,8.501094],[6.820137,8.499624],[6.812412,8.500506],[6.807658,8.499331],[6.80439,8.49316],[6.802905,8.484051],[6.802608,8.478761],[6.809738,8.474647],[6.818948,8.479349],[6.827564,8.479055],[6.830832,8.47024],[6.833538,8.457616],[6.82789,8.45755],[6.8275,8.45755],[6.798218,8.45755],[6.784564,8.45755],[6.782534,8.571502],[6.779962,8.580278]]]},"properties":{"FID":5520,"globalid":"62e4a4ac-84cd-4461-8537-80c57d9d7d45","uniq_id":492684,"timestamp":1552694400000,"editor":"oluseye.abraham","wardname":"Alu Mamagi","wardcode":"FCTABJ01","lganame":"Abaji","lgacode":"15001","statename":"Fct","statecode":"FC","amapcode":"NIE FCT ABJ","status":"Operational Validated","source":"INEC","urban":"No","Shape__Area":0.0063037885728114418,"Shape__Length":0.43451579537492357}},{"type":"Feature","id":5521,"geometry":{"type":"Polygon","coordinates":[[[7.37145,9.198039],[7.3598,9.212981],[7.349698,9.222072],[7.357914,9.225618],[7.36647,9.229934],[7.376358,9.235283],[7.382062,9.239881],[7.384629,9.242978],[7.385576,9.24398],[7.388622,9.247201],[7.39927,9.246544],[7.41239,9.23594],[7.423228,9.223084],[7.464292,9.215951],[7.473402,9.185645],[7.475555,9.181376],[7.475379,9.178472],[7.473692,9.17651],[7.467967,9.168632],[7.467047,9.164718],[7.47285,9.162566],[7.474041,9.156076],[7.454453,9.154477],[7.428203,9.15788],[7.414897,9.165188],[7.402113,9.176231],[7.38593,9.188993],[7.382901,9.195353],[7.37145,9.198039]]]},"properties":{"FID":5521,"globalid":"91afd005-e7c9-4e7d-b5d2-93513db2fa18","uniq_id":492685,"timestamp":1552694400000,"editor":"oluseye.abraham","wardname":"Ushafa","wardcode":"FCTBWR09","lganame":"Bwari","lgacode":"15002","statename":"Fct","statecode":"FC","amapcode":"NIE FCT BWR","status":"Operational Validated","source":"INEC","urban":"No","Shape__Area":0.0063741075243655132,"Shape__Length":0.35158599714574829}}]}
