{"type":"FeatureCollection","features":[{"type":"Feature","id":372,"geometry":{"type":"Polygon","coordinates":[[[6.95069841230196,8.47150652710457],[6.950187687312,8.47152035238241],[6.94948682855437,8.47161321098093],[6.94904712122769,8.47170136792386],[6.94823306840141,8.47188943774739],[6.94741604421512,8.4719570262958],[6.94723996325376,8.47170763709784],[6.94689770376607,8.47139732332784],[6.94674796574606,8.47103058789139],[6.94668379192353,8.47055101092047],[6.94644135898159,8.47044522276889],[6.94612762239188,8.47029711701839],[6.94573544873202,8.47002206476651],[6.94547875613972,8.46988806488235],[6.945093715003,8.46981048576538],[6.94491545498431,8.46986690743188],[6.94475145641462,8.47006437966746],[6.94460171839467,8.47041701193558],[6.94403604033107,8.47000090731609],[6.94301401658367,8.4694954694404],[6.94253069213778,8.46943689299826],[6.94325169660857,8.47036725244681],[6.94338004425367,8.470984353745],[6.94377934594013,8.47132993173102],[6.94449238511555,8.47181656208471],[6.94538957217105,8.47179204476708],[6.94671385625952,8.47279863165159],[6.94714167904527,8.47319827777835],[6.94730805542247,8.4744677373962],[6.94844891828302,8.47406809306807],[6.95156252229259,8.47340985588022],[6.95372540800122,8.47289266656338],[6.95422957333619,8.47278238629815],[6.95325143470598,8.47239017126941],[6.9508366093221,8.47156266728331],[6.95069841230196,8.47150652710457]]]},"properties":{"FID":372,"globalid":"19c8c6dc-b311-432b-92f9-f9e68c515295","uniq_id":499613,"timestamp":1552694400000,"editor":"oluseye.abraham","wardname":"Central Abaji","wardcode":"FCTABJ02","lganame":"Abaji","lgacode":"15001","statename":"Fct","statecode":"FC","amapcode":"NIE FCT ABJ","status":"Operational Validated","source":"INEC","urban":"Yes","Shape__Area":1.8867764119079311E-05,"Shape__Length":0.02841004695597249}},{"type":"Feature","id":381,"geometry":{"type":"Polygon","coordinates":[[[7.47969950402893,9.11204315596694],[7.50475943569944,9.09972836057545],[7.50633100097497,9.09742420666186],[7.50808986085843,9.09488898723703],[7.50918792138549,9.09282052584666],[7.50665431804237,9.08922890429056],[7.50390547365873,9.08279565529529],[7.50324738485898,9.0760140332211],[7.50139205829691,9.07360919211055],[7.49557643490459,9.06944927726238],[7.4917920013998,9.06696585698876],[7.48945700433734,9.06265832831923],[7.48480563607131,9.06007109660385],[7.48112665796896,9.05900727956237],[7.47772859389954,9.0583739356087],[7.4749180398357,9.05741463957401],[7.47149230632493,9.05467022974733],[7.46994108641206,9.04992598939293],[7.46357025216543,9.04725153513027],[7.45523692004787,9.0464242235991],[7.45387838977592,9.05120956207168],[7.45377190015313,9.0563639958018],[7.45350894738004,9.05962647807957],[7.4521233637023,9.06583207628933],[7.45168221116518,9.06789704021628],[7.45201118137095,9.07096520777816],[7.45259490073414,9.07274140569137],[7.45403049301291,9.07554824105853],[7.45660123206125,9.07796823844348],[7.46047068657299,9.08129233597259],[7.46285262374965,9.083364673441],[7.46962609257014,9.08742368705356],[7.47207518572128,9.08943745797234],[7.47403751182173,9.0921750554345],[7.47588376512368,9.09754703426825],[7.48033685536166,9.10930763593871],[7.47969950402893,9.11204315596694]]]},"properties":{"FID":381,"globalid":"241c4110-996e-4866-90f6-b751e41bcada","uniq_id":499621,"timestamp":1552694400000,"editor":"oluseye.abraham","wardname":"Wuse","wardcode":"FCTABC12","lganame":"Municipal Area Council","lgacode":"15006","statename":"Fct","statecode":"FC","amapcode":"NIE FCT ABC","status":"Operational Validated","source":"INEC","urban":"Yes","Shape__Area":0.0019648478395950519,"Shape__Length":0.19147074055490462}},{"type":"Feature","id":819,"geometry":{"type":"Polygon","coordinates":[[[7.21813344600179,9.09227021180089],[7.21814508143041,9.09138304858885],[7.2178833409435,9.08937240371353],[7.21765729185057,9.08839682455385],[7.21672930211565,9.08616013238424],[7.21521834395145,9.08701673933109],[7.21429459362065,9.08766059995679],[7.2140802743852,9.08780998184523],[7.21360283870007,9.08809374133313],[7.2131388442823,9.08820081731392],[7.2127105412585,9.08835786142623],[7.21250352811541,9.08782962124008],[7.212210853648,9.08792241958406],[7.21183965757416,9.08813657064627],[7.21204667071731,9.0886219824186],[7.21109726632585,9.08905742336145],[7.21014786193433,9.08960707820415],[7.20999179808308,9.0897371309639],[7.2098648605749,9.08984291192093],[7.2103615102755,9.09057773087761],[7.21085196364726,9.09105866132819],[7.21134184774814,9.09153903419912],[7.2112371513735,9.09186263994894],[7.21120169290384,9.0919169338195],[7.21093257977481,9.09232901397286],[7.21092544185569,9.09248463086107],[7.21107534804889,9.09286296575334],[7.21109676270549,9.09307711681555],[7.21083978143082,9.09352683539521],[7.21096113414904,9.09392658404465],[7.21108962478638,9.09416643413368],[7.2111110403423,9.09440913957019],[7.21094685741161,9.09455904486407],[7.21056138370096,9.09498020996875],[7.21022945022901,9.09547632727072],[7.21019375793566,9.09602955242195],[7.21046739555391,9.09631627697468],[7.21089186206984,9.09683896564582],[7.21128081705609,9.09732955391581],[7.21150841028498,9.09763806814237],[7.21161622011249,9.09780820638366],[7.21188912388402,9.09823888091967],[7.21187142972275,9.09911741963327],[7.21181179118128,9.1011013726303],[7.21184153535864,9.10159987043772],[7.21198794139042,9.10260008022959],[7.21235530635238,9.10350918060425],[7.21325196730447,9.10529142465958],[7.21378982843788,9.10605796270488],[7.21422040584707,9.10671525920191],[7.21440384865872,9.10728338971671],[7.21440171996346,9.10822262187656],[7.21470499294111,9.10827069783448],[7.21517022302743,9.10848544604653],[7.21689721003827,9.10970556436035],[7.217474349062,9.11007628019621],[7.21791272089541,9.11030722429899],[7.21853802580927,9.11056813021509],[7.22060480276946,9.11123820877634],[7.2197580344058,9.11351013278647],[7.2205723237538,9.11465595091147],[7.22100463955252,9.11526427932307],[7.22176116544546,9.11360126288804],[7.22296150676817,9.11174231205808],[7.22258432210884,9.11107132428225],[7.22070101943655,9.10772102410601],[7.21967785085218,9.10617437364846],[7.21882124480464,9.10427080385455],[7.21791705023173,9.10108232588868],[7.21781976696872,9.09904136576648],[7.21777343209828,9.09806928317096],[7.21799041602492,9.09620145693174],[7.21810117293086,9.09473085764301],[7.21813344600179,9.09227021180089]]]},"properties":{"FID":819,"globalid":"29a345b1-d79f-4f9b-a756-c1f40a07cbc3","uniq_id":500050,"timestamp":1552694400000,"editor":"oluseye.abraham","wardname":"Zuba","wardcode":"FCTGWA10","lganame":"Gwagwalada","lgacode":"15003","statename":"Fct","statecode":"FC","amapcode":"NIE FCT GWA","status":"Operational Validated","source":"INEC","urban":"Yes","Shape__Area":0.00015763543343183528,"Shape__Length":0.07230329917997344}},{"type":"Feature","id":820,"geometry":{"type":"Polygon","coordinates":[[[7.35149474588587,9.14008112514387],[7.34351823777649,9.14367975421732],[7.33168299237627,9.14231408782496],[7.32394272267857,9.14142094142335],[7.32357838483466,9.14136341359074],[7.323541094446,9.14270813207469],[7.32356486172904,9.14420995402622],[7.32351732626364,9.14519552105651],[7.32389761358405,9.14636881167138],[7.32437297273458,9.14735437420507],[7.32491963733145,9.1481522059596],[7.32560890832451,9.14862151896796],[7.32634571478297,9.1489735046236],[7.32877004779954,9.14970093564972],[7.3303625016282,9.15049876380698],[7.3312181489984,9.15127312505473],[7.33021989433269,9.15169550334485],[7.33005351885487,9.15200739722366],[7.33004163521332,9.15230071470626],[7.3299227952009,9.15264096330986],[7.3299227952009,9.15306333890203],[7.33013670704344,9.15328626105213],[7.33001786703096,9.15369690229028],[7.32968511517595,9.15502268914582],[7.32907474620265,9.15626394872231],[7.32801127809807,9.15799491972979],[7.32415125387729,9.15642566481262],[7.32322568691598,9.15624829422347],[7.32226147158968,9.15637998734661],[7.3227295534262,9.15975097822513],[7.32315764780725,9.16184129673849],[7.32446198493273,9.16167711021052],[7.32826378974215,9.16256667191442],[7.3336258445571,9.1636366619025],[7.33586954244549,9.16417165419853],[7.33926493283042,9.16487014594054],[7.33931821586305,9.16607258538158],[7.34410395633256,9.16585024869005],[7.34648075298441,9.16567426485551],[7.35046188800578,9.16485300666096],[7.35586910227732,9.16373843907775],[7.35773911027178,9.16313287158482],[7.35918043572855,9.16233469089332],[7.35805363017096,9.16176612960322],[7.3570949852454,9.16066017392791],[7.35704748215562,9.15824548344233],[7.35767231042882,9.15747736169095],[7.3589107065639,9.15651186662939],[7.35939910588405,9.15534999110923],[7.36073943387782,9.15380249618829],[7.36263719405133,9.1521334453023],[7.36365101058573,9.15092798683719],[7.36449160690216,9.15042284303985],[7.36573070900505,9.14764280567101],[7.36816692566316,9.14547222266498],[7.36953358400774,9.14500290605929],[7.37045459320495,9.14450425716581],[7.36318161394036,9.13192627967413],[7.35149474588587,9.14008112514387]]]},"properties":{"FID":820,"globalid":"d4fbff11-00ca-4731-a063-4344b3fc104d","uniq_id":500051,"timestamp":1552694400000,"editor":"oluseye.abraham","wardname":"Usuma","wardcode":"FCTBWR10","lganame":"Bwari","lgacode":"15002","statename":"Fct","statecode":"FC","amapcode":"NIE FCT BWR","status":"Operational Validated","source":"INEC","urban":"Yes","Shape__Area":0.00090373690962053388,"Shape__Length":0.15442960622113489}},{"type":"Feature","id":3854,"geometry":{"type":"Polygon","coordinates":[[[7.2140802743852,9.08780998184523],[7.21429459362065,9.08766059995679],[7.21521834395145,9.08701673933109],[7.21672930211565,9.08616013238424],[7.21765729185057,9.08839682455385],[7.2178833409435,9.08937240371353],[7.21814508143041,9.09138304858885],[7.21813344600179,9.09227021180089],[7.24222538969002,9.10015388379475],[7.24925724002964,9.10245950180462],[7.25617754205996,9.09304997977279],[7.26349565470076,9.0819328574155],[7.27274169797101,9.07463685100993],[7.28475099726074,9.0696421107948],[7.28646179377682,9.06327412110386],[7.29008383400179,9.05843589170308],[7.29605065141646,9.05509694097111],[7.30234890407871,9.05489027496628],[7.30649266890157,9.05551523723847],[7.31129622404154,9.0592911460696],[7.31337126667069,9.06160545962433],[7.31554274899872,9.061768209935],[7.31830478643678,9.06191700276753],[7.32051424443688,9.06303316574804],[7.32198264758119,9.06355854968734],[7.32231479329312,9.06420736198021],[7.32210871994153,9.06620600989947],[7.32360367287123,9.06648802380329],[7.32506692110155,9.06604538738475],[7.32520852295499,9.06749234439621],[7.32649548787651,9.06854732110202],[7.32582852456682,9.07022963968615],[7.32343220543197,9.07204111170796],[7.32177915708246,9.07417965097017],[7.32037403923056,9.07588792218991],[7.31959627764616,9.07724221485637],[7.31927528262821,9.07837939139586],[7.31714579414313,9.07876292436953],[7.31447455585612,9.0788685722269],[7.31384928511648,9.07984221874347],[7.31406236958276,9.08200029487773],[7.31518837564306,9.0845268097645],[7.31562256922626,9.08559417103419],[7.31705292565204,9.08580275709164],[7.31762802501339,9.0857046365598],[7.31805624260159,9.08624157319008],[7.31874154038985,9.08571903560505],[7.32182018685216,9.08451260677145],[7.32350378607094,9.08358201979445],[7.32589913573656,9.0812485875523],[7.32765031900709,9.0799913668082],[7.32931117616988,9.0790017492314],[7.3336877269071,9.07748868035839],[7.33950526585539,9.07554908372327],[7.34170338520312,9.07453569616547],[7.34528514659229,9.07317619912232],[7.34990905316033,9.07116927474226],[7.35455893394771,9.06992923194855],[7.35562951568966,9.07004106264498],[7.35906975976167,9.07046312797104],[7.35995322406211,9.07044232305481],[7.36051721140024,9.07029637477791],[7.36241910755581,9.06965261037971],[7.36347310220197,9.06917873241264],[7.36410772229362,9.06867448523934],[7.36532963385559,9.06764932825394],[7.36600561196946,9.06703632516633],[7.36651016221424,9.06670713013],[7.36766658874211,9.06627878933472],[7.36867542213309,9.06598745935383],[7.37007567195474,9.0659484332736],[7.37159250898713,9.06599496059903],[7.37455236489978,9.06568199562764],[7.37755829757742,9.06501431286028],[7.37888173630313,9.06557501137775],[7.37983956914087,9.0651920485742],[7.38065952601636,9.06413713572027],[7.3820890020059,9.06351650728101],[7.38414111911743,9.06212583613848],[7.38479363122116,9.06083653297964],[7.38573299198401,9.05695693321593],[7.38716159742984,9.05760093233721],[7.38817580157206,9.05914392884927],[7.39172154781124,9.05844322297639],[7.39020309469709,9.05436873113206],[7.38957804788862,9.04964204014806],[7.38909536286076,9.04541151413014],[7.3882918509882,9.0430549594189],[7.39219854282851,9.04217338369477],[7.39831393364119,9.04026525164011],[7.40253531625189,9.03852188887413],[7.41204528626099,9.03624905744812],[7.41087864343467,9.02588980277221],[7.40776432985996,9.02462250872185],[7.39348803484501,9.02458703316512],[7.38238488435496,9.02765621426295],[7.37588156198456,9.03055831031782],[7.35314712244178,9.02365143876295],[7.34520369139727,9.01879180369883],[7.33732550256991,9.01195021662926],[7.33071941556864,9.00961034703994],[7.32335231595664,9.00322464789923],[7.32086043576055,8.99978192799364],[7.32161301273038,8.99739608775928],[7.32261969404368,8.99590490568687],[7.32314984798717,8.99465373288353],[7.3227580628344,8.99403481135749],[7.32115592870321,8.99403097934629],[7.32057512314344,8.99303289195444],[7.3178434369251,8.98369338394258],[7.31495509240364,8.97847119708814],[7.30619051468057,8.98360657418408],[7.28955293362105,8.99452294088104],[7.27410375178675,9.00579110437599],[7.26863711840832,9.02058003544033],[7.26364584418042,9.02621375386173],[7.26150672575483,9.03466416691782],[7.25865456995251,9.04898247106422],[7.24653290307106,9.06095307522429],[7.2353619562893,9.06658616232158],[7.21907300641413,9.06306946328516],[7.20980262838862,9.08031559039222],[7.21404870278548,9.08774646003116],[7.21407222725156,9.08778762829644],[7.2140802743852,9.08780998184523]]]},"properties":{"FID":3854,"globalid":"480d7ed6-555a-4331-98a0-12afcfbd97d7","uniq_id":496706,"timestamp":1552694400000,"editor":"oluseye.abraham","wardname":"Jiwa","wardcode":"FCTABC06","lganame":"Municipal Area Council","lgacode":"15006","statename":"Fct","statecode":"FC","amapcode":"NIE FCT ABC","status":"Operational Not Validated","source":"INEC","urban":"No","Shape__Area":0.0095340628364724012,"Shape__Length":0.60827098789107348}},{"type":"Feature","id":3856,"geometry":{"type":"Polygon","coordinates":[[[7.32357838483466,9.14136341359074],[7.32394272267857,9.14142094142335],[7.33168299237627,9.14231408782496],[7.33009104576519,9.13907954118793],[7.32988978288722,9.1376123197528],[7.3285360630889,9.13666714397357],[7.32743441426686,9.13569999595808],[7.32668835738184,9.13587207133907],[7.32584135519443,9.13702434839502],[7.32498990136293,9.13733473680873],[7.32418342442554,9.13658674638128],[7.32244884623731,9.13553784459589],[7.32206402903176,9.13426155912373],[7.32089611996003,9.13168313626778],[7.31987301342889,9.13076442843567],[7.32008451868563,9.12858310392716],[7.31920308685301,9.12743686941604],[7.31874198105766,9.12528855272456],[7.31821183880538,9.12461376441377],[7.31473788364644,9.12511977695618],[7.31424078968075,9.12451774919481],[7.3145649853858,9.12362480334207],[7.31534755294729,9.12309945267765],[7.31570467912769,9.12222138880611],[7.31523760273325,9.12143229036798],[7.31414873957272,9.12087278704951],[7.3135656506343,9.1188866837735],[7.31396116257764,9.11836388178779],[7.31559530897636,9.11819645770044],[7.31583980676174,9.11740231766288],[7.31559405262345,9.11471165222105],[7.31517767101275,9.11081100382484],[7.31535310716021,9.10854474104701],[7.31540233874699,9.10683819202899],[7.31474197376315,9.1055029982648],[7.31451574210786,9.1042429977162],[7.31490661534809,9.10370508442213],[7.31644620163092,9.10301363077451],[7.31794225712952,9.10176782332644],[7.32091551833656,9.09919569212752],[7.32111406436263,9.0983832445911],[7.32029068107011,9.09789419685973],[7.31803933624644,9.09469106893772],[7.31809281533123,9.09392303262189],[7.31869433587497,9.09289362633984],[7.31850961872397,9.0917396189883],[7.31889679664988,9.09102037808805],[7.32079182198504,9.08910930165302],[7.32063630672025,9.08734192698842],[7.32003408110802,9.08653797534731],[7.3191823637751,9.08661788101045],[7.31805624260159,9.08624157319008],[7.31762802501339,9.0857046365598],[7.31705292565204,9.08580275709164],[7.31562256922626,9.08559417103419],[7.31518837564306,9.0845268097645],[7.31406236958276,9.08200029487773],[7.31384928511648,9.07984221874347],[7.31447455585612,9.0788685722269],[7.31714579414313,9.07876292436953],[7.31927528262821,9.07837939139586],[7.31959627764616,9.07724221485637],[7.32037403923056,9.07588792218991],[7.32177915708246,9.07417965097017],[7.32343220543197,9.07204111170796],[7.32582852456682,9.07022963968615],[7.32649548787651,9.06854732110202],[7.32520852295499,9.06749234439621],[7.32506692110155,9.06604538738475],[7.32360367287123,9.06648802380329],[7.32210871994153,9.06620600989947],[7.32231479329312,9.06420736198021],[7.32198264758119,9.06355854968734],[7.32051424443688,9.06303316574804],[7.31830478643678,9.06191700276753],[7.31554274899872,9.061768209935],[7.31337126667069,9.06160545962433],[7.31129622404154,9.0592911460696],[7.30649266890157,9.05551523723847],[7.30234890407871,9.05489027496628],[7.29605065141646,9.05509694097111],[7.29008383400179,9.05843589170308],[7.28646179377682,9.06327412110386],[7.28475099726074,9.0696421107948],[7.27274169797101,9.07463685100993],[7.26349565470076,9.0819328574155],[7.25617754205996,9.09304997977279],[7.24925724002964,9.10245950180462],[7.25376597671851,9.10677653540881],[7.26024151273566,9.11346777741602],[7.27138546007097,9.12640382177898],[7.27771040281289,9.13279732613574],[7.28237881323167,9.1356223269089],[7.2888543501482,9.13710916075922],[7.30315636667302,9.13813884583112],[7.32357838483466,9.14136341359074]]]},"properties":{"FID":3856,"globalid":"f0a51799-55e6-4ade-8977-45bcddc40cf1","uniq_id":496704,"timestamp":1552694400000,"editor":"oluseye.abraham","wardname":"Gwagwa","wardcode":"FCTABC04","lganame":"Municipal Area Council","lgacode":"15006","statename":"Fct","statecode":"FC","amapcode":"NIE FCT ABC","status":"Operational Validated","source":"INEC","urban":"No","Shape__Area":0.0041462820008533186,"Shape__Length":0.310921238428683}},{"type":"Feature","id":3857,"geometry":{"type":"Polygon","coordinates":[[[7.24925724002964,9.10245950180462],[7.24222538969002,9.10015388379475],[7.21813344600179,9.09227021180089],[7.21810117293086,9.09473085764301],[7.21799041602492,9.09620145693174],[7.21777343209828,9.09806928317096],[7.21781976696872,9.09904136576648],[7.21791705023173,9.10108232588868],[7.21882124480464,9.10427080385455],[7.21967785085218,9.10617437364846],[7.22070101943655,9.10772102410601],[7.22258432210884,9.11107132428225],[7.22296150676817,9.11174231205808],[7.22176116544546,9.11360126288804],[7.22100463955252,9.11526427932307],[7.22214155798656,9.11686403384812],[7.23398094206686,9.13352320942863],[7.24975681342625,9.15572166382378],[7.26537865160356,9.1776338739042],[7.28195947375076,9.17192129123464],[7.30186515155555,9.1685483128544],[7.30976298787164,9.16686759596286],[7.3102755106064,9.16698960338755],[7.31063892574588,9.16687177870966],[7.31065824588137,9.16647284394662],[7.31209398385033,9.16645213795584],[7.31211010779526,9.1678595346898],[7.31278310016,9.16790003026222],[7.31279501257984,9.16684127370587],[7.3148578082413,9.16718496671291],[7.31533284813247,9.16726600642113],[7.31578053604295,9.16740490761043],[7.31678063341957,9.16612079443917],[7.31768538287417,9.16580143528807],[7.31805510495917,9.16480079741893],[7.31771957779631,9.16435902884615],[7.31786812781189,9.16371375178824],[7.31804638693126,9.16274583485244],[7.31950217618453,9.16013537814524],[7.32226527212464,9.1619278960556],[7.32315764780725,9.16184129673849],[7.3227295534262,9.15975097822513],[7.32226147158968,9.15637998734661],[7.32322568691598,9.15624829422347],[7.32415125387729,9.15642566481262],[7.32801127809807,9.15799491972979],[7.32907474620265,9.15626394872231],[7.32968511517595,9.15502268914582],[7.33001786703096,9.15369690229028],[7.33013670704344,9.15328626105213],[7.3299227952009,9.15306333890203],[7.3299227952009,9.15264096330986],[7.33004163521332,9.15230071470626],[7.33005351885487,9.15200739722366],[7.33021989433269,9.15169550334485],[7.3312181489984,9.15127312505473],[7.3303625016282,9.15049876380698],[7.32877004779954,9.14970093564972],[7.32634571478297,9.1489735046236],[7.32560890832451,9.14862151896796],[7.32491963733145,9.1481522059596],[7.32437297273458,9.14735437420507],[7.32389761358405,9.14636881167138],[7.32351732626364,9.14519552105651],[7.32356486172904,9.14420995402622],[7.323541094446,9.14270813207469],[7.32357838483466,9.14136341359074],[7.30315636667302,9.13813884583112],[7.2888543501482,9.13710916075922],[7.28237881323167,9.1356223269089],[7.27771040281289,9.13279732613574],[7.27138546007097,9.12640382177898],[7.26024151273566,9.11346777741602],[7.25376597671851,9.10677653540881],[7.24925724002964,9.10245950180462]]]},"properties":{"FID":3857,"globalid":"7505da84-5814-420e-89f0-ee6770704c23","uniq_id":496707,"timestamp":1552694400000,"editor":"oluseye.abraham","wardname":"Kubwa","wardcode":"FCTBWR06","lganame":"Bwari","lgacode":"15002","statename":"Fct","statecode":"FC","amapcode":"NIE FCT BWR","status":"Operational Not Validated","source":"INEC","urban":"No","Shape__Area":0.00402678652175581,"Shape__Length":0.32442988575227127}},{"type":"Feature","id":3865,"geometry":{"type":"Polygon","coordinates":[[[7.26537865160356,9.1776338739042],[7.3157838554406,9.24832413904784],[7.33082025924762,9.26941179042183],[7.33395191534868,9.2637126211406],[7.33736856121016,9.25828791775325],[7.3473213987636,9.24626530759792],[7.34940109718292,9.23292266265082],[7.34969819721408,9.22207222705168],[7.35979958478305,9.21298106502417],[7.37145040261402,9.19803919705134],[7.36725423699352,9.18637534624526],[7.36960694170705,9.18453537740578],[7.36824615323741,9.17378848974704],[7.3678597712115,9.16639194273404],[7.35918043572855,9.16233469089332],[7.35773911027178,9.16313287158482],[7.35586910227732,9.16373843907775],[7.35046188800578,9.16485300666096],[7.34648075298441,9.16567426485551],[7.34410395633256,9.16585024869005],[7.33931821586305,9.16607258538158],[7.33926493283042,9.16487014594054],[7.33586954244549,9.16417165419853],[7.3336258445571,9.1636366619025],[7.32826378974215,9.16256667191442],[7.32446198493273,9.16167711021052],[7.32315764780725,9.16184129673849],[7.32226527212464,9.1619278960556],[7.31950217618453,9.16013537814524],[7.31804638693126,9.16274583485244],[7.31786812781189,9.16371375178824],[7.31771957779631,9.16435902884615],[7.31805510495917,9.16480079741893],[7.31768538287417,9.16580143528807],[7.31678063341957,9.16612079443917],[7.31578053604295,9.16740490761043],[7.31533284813247,9.16726600642113],[7.3148578082413,9.16718496671291],[7.31279501257984,9.16684127370587],[7.31278310016,9.16790003026222],[7.31211010779526,9.1678595346898],[7.31209398385033,9.16645213795584],[7.31065824588137,9.16647284394662],[7.31063892574588,9.16687177870966],[7.3102755106064,9.16698960338755],[7.30976298787164,9.16686759596286],[7.30186515155555,9.1685483128544],[7.28195947375076,9.17192129123464],[7.26537865160356,9.1776338739042]]]},"properties":{"FID":3865,"globalid":"6703aafc-1414-4796-b9e9-6738de8a24e6","uniq_id":496709,"timestamp":1552694400000,"editor":"oluseye.abraham","wardname":"Byazhin","wardcode":"FCTBWR02","lganame":"Bwari","lgacode":"15002","statename":"Fct","statecode":"FC","amapcode":"NIE FCT BWR","status":"Operational Validated","source":"INEC","urban":"No","Shape__Area":0.0061877094582385439,"Shape__Length":0.34713866111481129}},{"type":"Feature","id":3866,"geometry":{"type":"Polygon","coordinates":[[[7.12630975039474,9.18448038296333],[7.1428308296791,9.17208753361285],[7.15382312163979,9.16368889722486],[7.16765832886881,9.15311813369499],[7.17166273924408,9.15011170908815],[7.179336245971,9.1442459170155],[7.2197580344058,9.11351013278647],[7.22060480276946,9.11123820877634],[7.21853802580927,9.11056813021509],[7.21791272089541,9.11030722429899],[7.217474349062,9.11007628019621],[7.21689721003827,9.10970556436035],[7.21517022302743,9.10848544604653],[7.21470499294111,9.10827069783448],[7.21440171996346,9.10822262187656],[7.21440384865872,9.10728338971671],[7.21422040584707,9.10671525920191],[7.21378982843788,9.10605796270488],[7.21325196730447,9.10529142465958],[7.21235530635238,9.10350918060425],[7.21198794139042,9.10260008022959],[7.21184153535864,9.10159987043772],[7.21181179118128,9.1011013726303],[7.21187142972275,9.09911741963327],[7.21188912388402,9.09823888091967],[7.21161622011249,9.09780820638366],[7.21150841028498,9.09763806814237],[7.21128081705609,9.09732955391581],[7.21089186206984,9.09683896564582],[7.21046739555391,9.09631627697468],[7.21019375793566,9.09602955242195],[7.21022945022901,9.09547632727072],[7.21056138370096,9.09498020996875],[7.21094685741161,9.09455904486407],[7.2111110403423,9.09440913957019],[7.21108962478638,9.09416643413368],[7.21096113414904,9.09392658404465],[7.21083978143082,9.09352683539521],[7.21109676270549,9.09307711681555],[7.21107534804889,9.09286296575334],[7.21092544185569,9.09248463086107],[7.21093257977481,9.09232901397286],[7.21120169290384,9.0919169338195],[7.2112371513735,9.09186263994894],[7.21134184774814,9.09153903419912],[7.21085196364726,9.09105866132819],[7.2103615102755,9.09057773087761],[7.2098648605749,9.08984291192093],[7.20904995069469,9.08940132501118],[7.20748902439902,9.08955361081053],[7.20657531140154,9.08683912232766],[7.2060890992326,9.08510390022485],[7.20572710232398,9.08233532561485],[7.19321903722886,9.08209965827268],[7.19042739500833,9.08212825041846],[7.18670250921349,9.08128692295315],[7.18478492618345,9.08101588887223],[7.18312955218715,9.08143213108804],[7.17981768363921,9.08151585167525],[7.17688708267275,9.08213343141279],[7.17443617738775,9.08172921583071],[7.17223323857314,9.08236490161897],[7.16973992215975,9.08380888906902],[7.16527119540939,9.08387935544795],[7.16135657424655,9.08288449572296],[7.15804375961187,9.08236554283559],[7.15616433931285,9.08229506656414],[7.15643277525243,9.08342133522649],[7.15250809697113,9.08430575011033],[7.15196380478579,9.08328797386093],[7.15092945043386,9.08366785738576],[7.14935960825937,9.08420586960523],[7.14809936669246,9.08428301614833],[7.14679218411203,9.08521577858534],[7.14415709407467,9.08685909087438],[7.14295327597296,9.08780609767331],[7.1426188252986,9.08845198986751],[7.14188028584658,9.090251294062],[7.13704903608419,9.09445770565861],[7.12294201596131,9.07774870763677],[7.11847895943646,9.07578496330547],[7.08436702761628,9.08644494138099],[7.07473021093051,9.10250630342324],[7.08936389562734,9.12320761414014],[7.10007147032212,9.16532407424666],[7.10442649578619,9.20124972729315],[7.12630975039474,9.18448038296333]]]},"properties":{"FID":3866,"globalid":"5d4605fe-22a5-491f-a6c4-e9930ac6e16a","uniq_id":496710,"timestamp":1552694400000,"editor":"oluseye.abraham","wardname":"Ikwa","wardcode":"FCTGWA05","lganame":"Gwagwalada","lgacode":"15003","statename":"Fct","statecode":"FC","amapcode":"NIE FCT GWA","status":"Operational Not Validated","source":"INEC","urban":"No","Shape__Area":0.0097614714206102349,"Shape__Length":0.44734857894683056}},{"type":"Feature","id":4640,"geometry":{"type":"Polygon","coordinates":[[[7.20487569975381,8.45805049473461],[7.14936074140513,8.4514032241795],[7.1334189828998,8.44949438435839],[7.12723323722417,8.45335267198828],[7.11008913370659,8.46404610934053],[7.09781111519084,8.47175556196964],[7.08041725735058,8.48003788633946],[7.08134166238784,8.54114747317738],[7.07777646561146,8.55436845514015],[7.11695920860063,8.57822601302013],[7.14486503589274,8.58311930970842],[7.18081803642332,8.58019456422778],[7.20107282475112,8.54232269014011],[7.19988442642517,8.50941525091315],[7.20487569975381,8.45805049473461]]]},"properties":{"FID":4640,"globalid":"255e8643-0039-42e0-be2c-0d6cbff8da6b","uniq_id":491777,"timestamp":1552694400000,"editor":"oluseye.abraham","wardname":"Gwargwada","wardcode":"FCTKUJ04","lganame":"Kuje","lgacode":"15004","statename":"Fct","statecode":"FC","amapcode":"NIE FCT KUJ","status":"Operational Validated","source":"INEC","urban":"No","Shape__Area":0.013878302749056104,"Shape__Length":0.44579741097128461}},{"type":"Feature","id":5020,"geometry":{"type":"Polygon","coordinates":[[[7.30386930692305,8.58932838919384],[7.35437624926453,8.53703418637866],[7.38028333870517,8.52152081723199],[7.3653095160214,8.48767128420246],[7.31325765621591,8.4735664314457],[7.30085189889604,8.47090782683478],[7.27047530479155,8.46439799876867],[7.24901482417482,8.46232145517109],[7.20487569975381,8.45805049473461],[7.19988442642517,8.50941525091315],[7.20107282475112,8.54232269014011],[7.18081803642332,8.58019456422778],[7.23672478442131,8.57287705503211],[7.30386930692305,8.58932838919384]]]},"properties":{"FID":5020,"globalid":"6aba94a0-07cb-46fb-93e7-090087414c02","uniq_id":492713,"timestamp":1552694400000,"editor":"oluseye.abraham","wardname":"Gudunkarya","wardcode":"FCTKUJ03","lganame":"Kuje","lgacode":"15004","statename":"Fct","statecode":"FC","amapcode":"NIE FCT KUJ","status":"Operational Validated","source":"INEC","urban":"No","Shape__Area":0.017355907979247576,"Shape__Length":0.556499260911445}},{"type":"Feature","id":5514,"geometry":{"type":"Polygon","coordinates":[[[7.59361257436086,8.84886776563491],[7.59287377410544,8.84354858240118],[7.591669082762,8.83487510690071],[7.56530141812601,8.78527927491865],[7.55307877536524,8.76228941802225],[7.54144287099177,8.74040317496662],[7.50197982820657,8.66865158120555],[7.49600076742155,8.65430164430546],[7.49322843634332,8.65073680905653],[7.48493733908697,8.64007727164881],[7.47925853675213,8.63277625961672],[7.47762346315233,8.63133335135313],[7.47559308984927,8.63252735065674],[7.46545267080415,8.63306140855718],[7.45691299373971,8.63412857107676],[7.45003104869397,8.63293145472289],[7.44463777481349,8.63199329365563],[7.43449688002704,8.63039302831567],[7.42969369900504,8.63306140855718],[7.42969369900504,8.63410935885986],[7.33532621883001,8.63957495801793],[7.34281312972223,8.68045973362985],[7.38873453597012,8.72921773201278],[7.452655704797,8.72583303366764],[7.49733949282336,8.73006172686723],[7.49961042398195,8.76008606012363],[7.49053716655703,8.76542282060672],[7.48520040517462,8.77236080240914],[7.48039674841124,8.78410339425631],[7.47986316715151,8.79210853588029],[7.47968864111795,8.79263203933721],[7.49058383237804,8.79783410925677],[7.50674605428702,8.81061153569385],[7.52385899359774,8.82263694633804],[7.55142984231344,8.83992278570804],[7.59361257436086,8.84886776563491]]]},"properties":{"FID":5514,"globalid":"b4fdb2b6-f176-48e8-aa6a-47154e2f2003","uniq_id":492675,"timestamp":1552694400000,"editor":"oluseye.abraham","wardname":"Karshi 1","wardcode":"FCTABC08","lganame":"Municipal Area Council","lgacode":"15006","statename":"Fct","statecode":"FC","amapcode":"NIE FCT ABC","status":"Operational Not Validated","source":"INEC","urban":"No","Shape__Area":0.021710560711671434,"Shape__Length":0.81025770583476053}},{"type":"Feature","id":5517,"geometry":{"type":"Polygon","coordinates":[[[7.09110081744882,8.94458070173806],[7.09031559508867,8.94349090867854],[7.0898658018653,8.94307079757931],[7.08958012862007,8.94280397772144],[7.08937808692923,8.94261526668129],[7.08923531865508,8.94226501132124],[7.08837514409765,8.94112620071365],[7.08819311502032,8.94098700184873],[7.08788973412396,8.94064792865902],[7.08760158144787,8.94016921143998],[7.08740230157503,8.94001752099183],[7.08720509823672,8.93974188328133],[7.08679104587014,8.93920084124585],[7.08656642040404,8.93894084994031],[7.0862052832473,8.93844638289431],[7.08600793691681,8.93819723291602],[7.08582385288855,8.93801861406786],[7.08559514989628,8.9377915028756],[7.08542497028623,8.93759879794624],[7.08531789430543,8.93754526130482],[7.0851923768268,8.93751849208479],[7.08506923625629,8.93739256271664],[7.08447259003805,8.9366672388021],[7.08431435612266,8.93632638225677],[7.08423999837726,8.93597838599379],[7.08410615317649,8.93565715805147],[7.08380574633816,8.93547572522459],[7.08367669991981,8.93540974736197],[7.08341016065043,8.93527347039441],[7.08309428727159,8.93517650729001],[7.08289924860151,8.93514498605231],[7.08265787596025,8.93510597615995],[7.08244166365188,8.93508287977113],[7.08219778190215,8.93505938408333],[7.08200568401514,8.9350408778343],[7.08190455704971,8.93493737126272],[7.08191050606507,8.93477080872589],[7.08198237988296,8.93448730464542],[7.08210086286459,8.93392610070902],[7.08200568401514,8.93337882367382],[7.08219009179936,8.93325390334502],[7.08232096294216,8.93304570039879],[7.08207706770258,8.93275421573452],[7.08192240319642,8.93235565598877],[7.08204732532386,8.93228427230139],[7.0823150139268,8.93246868188419],[7.0826743128693,8.93227761012366],[7.0827314198192,8.93176364577567],[7.08258865244443,8.93086421041505],[7.0833738739052,8.9299076672051],[7.08354268384784,8.92973644618007],[7.08384200160714,8.92943285304381],[7.0842149558556,8.92905457031225],[7.08465967420466,8.92860350005151],[7.08492372325128,8.9283356783489],[7.08522248433025,8.92803264908753],[7.08537262074992,8.92788036598614],[7.08692878873268,8.92531054784354],[7.08627205790918,8.92294060492503],[7.0863643814111,8.92204640271933],[7.08607884486287,8.91923864015115],[7.0853318688707,8.91817153069161],[7.08507947233983,8.91781096370505],[7.0837683570241,8.91765041763273],[7.08013019285414,8.91704953470833],[7.08002202059981,8.9165771487165],[7.07680974837126,8.91293657436347],[7.07316917311891,8.91257965502712],[7.06888614288124,8.90986706861037],[7.06581663802746,8.91086644293205],[7.06341576202783,8.90868447720692],[7.06139322002116,8.91029061332119],[7.05948965202589,8.90951728809245],[7.05556354112457,8.91189675033479],[7.05105446179402,8.91575861456846],[7.04714262942883,8.91887094963465],[7.04687850843646,8.92074834466041],[7.04752096342179,8.92328246961034],[7.04926986691089,8.9254596770225],[7.04909140724271,8.92767257582875],[7.04773511358468,8.92959993988535],[7.04577205903337,8.93059931330771],[7.04388038727012,8.92970701496682],[7.04120349404604,8.9257809040655],[7.03789128375581,8.92549536931591],[7.03417932481602,8.92372505117021],[7.02629855043779,8.92492429801797],[7.02235816279904,8.9241819067696],[7.02128740478997,8.92582373517729],[7.02195344899252,8.92678579932522],[7.02507074831641,8.93224827873513],[7.02377379462496,8.93375001525106],[7.02433242380238,8.93469569734862],[7.02519016929091,8.93586093363524],[7.02703425073014,8.93788347564191],[7.02899730708009,8.94139318244947],[7.02923525330436,8.94365366888178],[7.02697476507342,8.94811515788825],[7.02898070019921,8.94789679260293],[7.03022991697713,8.94872960618642],[7.03085452581576,8.94902703716809],[7.03073555270362,8.95045471361419],[7.03174647881701,8.95056703893772],[7.03207399931568,8.95060343000432],[7.03343641735682,8.94948993621165],[7.03539947190814,8.9488950697517],[7.03584562107858,8.94948993621165],[7.03798713619744,8.94919250343133],[7.03974198780253,8.9470807306912],[7.04253785503801,8.94294641774303],[7.04447116721065,8.94208386268019],[7.0455121810424,8.94291667626362],[7.04689226896306,8.94294641774303],[7.04861737818948,8.94345205257019],[7.05188913697413,8.94791354337536],[7.05301938063997,8.9490735303192],[7.05414962520507,8.94981711137063],[7.05547062227146,8.94703710817606],[7.05648427333063,8.94578075257971],[7.05810040271149,8.94499553021961],[7.06157549101613,8.94516501285511],[7.06295450334773,8.9452382347568],[7.06285456618531,8.94431024682046],[7.06448211695619,8.94315382658789],[7.0659097943016,8.94302533684987],[7.06663002175816,8.94440269982476],[7.06708715075143,8.94547618098102],[7.06631620602815,8.94645651935292],[7.06840061329774,8.9488550157464],[7.06886929498205,8.94848397615465],[7.0696208862949,8.9479425941754],[7.0704152979277,8.94739331614869],[7.07161272724562,8.94663973823339],[7.07342802588272,8.9459989209135],[7.07554276098966,8.94534403459954],[7.07688093330847,8.94497840442989],[7.07758993272927,8.94479327628869],[7.07830825182441,8.94462420644203],[7.0790861384146,8.94444111616463],[7.07991419098715,8.94431738473958],[7.08050158138292,8.94432890235703],[7.08137042090823,8.94434593821455],[7.08211580689903,8.94424818280743],[7.08253159765513,8.94419365241515],[7.08394226342477,8.94400228028104],[7.08508044990288,8.94388194019945],[7.08610269308485,8.94377486691661],[7.08722109178001,8.9438655482565],[7.08821848039861,8.94394641709351],[7.08891997497693,8.94400329471631],[7.08981539756257,8.94427001834674],[7.09026199099816,8.94440304516445],[7.09110081744882,8.94458070173806]]]},"properties":{"FID":5517,"globalid":"1fefe631-ba11-42ef-9577-0b21349be480","uniq_id":492679,"timestamp":1552694400000,"editor":"oluseye.abraham","wardname":"Kutunku","wardcode":"FCTGWA06","lganame":"Gwagwalada","lgacode":"15003","statename":"Fct","statecode":"FC","amapcode":"NIE FCT GWA","status":"Operational Validated","source":"INEC","urban":"Yes","Shape__Area":0.0016894638717630528,"Shape__Length":0.23136468495905915}},{"type":"Feature","id":5520,"geometry":{"type":"Polygon","coordinates":[[[6.77996208228433,8.58027811933977],[6.80290489294651,8.57968641579549],[6.83273172428972,8.58235836005031],[6.83593416243173,8.58129024514875],[6.84500741985659,8.58182430304919],[6.85087823913949,8.57968997980879],[6.85247945776081,8.57702064538654],[6.85621547716261,8.57648754076746],[6.8551944327769,8.56690699196417],[6.8531147352569,8.56014988271096],[6.85133213686868,8.55691817793161],[6.85133213686868,8.55309885612735],[6.85281763522573,8.54546009920426],[6.84806404102272,8.54017163681164],[6.84212204759444,8.53723357237152],[6.83528875587143,8.53429548364971],[6.83202065912616,8.52783161094015],[6.83231775915732,8.51931088259118],[6.83499165584027,8.50902699380077],[6.83410035664622,8.50520719265785],[6.83231775915732,8.50109351915063],[6.82013667316897,8.49962433899208],[6.81241208225185,8.50050584816643],[6.80765848714952,8.49933050170137],[6.80439039130357,8.49315987992458],[6.80290489294651,8.4840506846914],[6.80260779291535,8.47876137603674],[6.80973818466953,8.47464741834375],[6.81894827394376,8.47934908029589],[6.82756416405499,8.47905522771663],[6.83083226080026,8.47023955770948],[6.83353761217109,8.45761607991818],[6.82788991918449,8.45755004899559],[6.82750005768156,8.45755004899559],[6.79821766781117,8.45755004899559],[6.78456373872564,8.45755004899559],[6.78253425665065,8.57150246376773],[6.77996208228433,8.58027811933977]]]},"properties":{"FID":5520,"globalid":"62e4a4ac-84cd-4461-8537-80c57d9d7d45","uniq_id":492684,"timestamp":1552694400000,"editor":"oluseye.abraham","wardname":"Alu Mamagi","wardcode":"FCTABJ01","lganame":"Abaji","lgacode":"15001","statename":"Fct","statecode":"FC","amapcode":"NIE FCT ABJ","status":"Operational Validated","source":"INEC","urban":"No","Shape__Area":0.0063037885728114418,"Shape__Length":0.43451579537492357}},{"type":"Feature","id":5521,"geometry":{"type":"Polygon","coordinates":[[[7.37145040261402,9.19803919705134],[7.35979958478305,9.21298106502417],[7.34969819721408,9.22207222705168],[7.35791357335279,9.22561771698412],[7.36647004255849,9.22993442773168],[7.37635751918424,9.23528332186788],[7.38206183258757,9.23988142868501],[7.38462877379891,9.24297807867543],[7.38557606658225,9.24397985598563],[7.3886217933611,9.2472007410214],[7.39926984462767,9.2465438860915],[7.41238976617484,9.23594019838151],[7.42322796200091,9.22308397064876],[7.46429156780164,9.21595119928844],[7.473401573324,9.18564469204892],[7.47555546581214,9.18137640889421],[7.47537854488399,9.17847190805219],[7.47369165144863,9.17651039583814],[7.46796742165924,9.16863229874167],[7.46704721375795,9.16471759574051],[7.47285025563485,9.16256570784117],[7.47404135642353,9.15607608124623],[7.45445258981522,9.15447712262119],[7.42820254481165,9.15788017612925],[7.41489729007793,9.16518819567875],[7.40211265827259,9.17623115724217],[7.38592952442804,9.18899281316783],[7.38290100617655,9.19535335287497],[7.37145040261402,9.19803919705134]]]},"properties":{"FID":5521,"globalid":"91afd005-e7c9-4e7d-b5d2-93513db2fa18","uniq_id":492685,"timestamp":1552694400000,"editor":"oluseye.abraham","wardname":"Ushafa","wardcode":"FCTBWR09","lganame":"Bwari","lgacode":"15002","statename":"Fct","statecode":"FC","amapcode":"NIE FCT BWR","status":"Operational Validated","source":"INEC","urban":"No","Shape__Area":0.0063741075243655132,"Shape__Length":0.35158599714574829}},{"type":"Feature","id":5523,"geometry":{"type":"Polygon","coordinates":[[[7.088863264628,8.91783934271155],[7.08895425803263,8.91784002529698],[7.0970533644213,8.91793086941414],[7.1035373954345,8.91760369335583],[7.10553019416318,8.91680062484903],[7.10561942399727,8.91320169000602],[7.10294464597865,8.90613008603469],[7.120918274259,8.90091514591728],[7.12307357778343,8.89725112983581],[7.13214683520835,8.88497543336962],[7.15029287341741,8.86682891762052],[7.15669774970144,8.86095809923694],[7.16363573060454,8.85882282271513],[7.17804622695184,8.84814929995031],[7.18711948437675,8.83800792672452],[7.19138908413896,8.82306385001669],[7.19022807196802,8.81522699942656],[7.18925428425786,8.80865383120937],[7.18018102593362,8.79691219264362],[7.1748437879105,8.79264259378073],[7.15456294982033,8.78517055497719],[7.15432225616723,8.78511789697342],[7.14633279692112,8.79530968169649],[7.13879466514175,8.80134018819916],[7.11286348915877,8.80495849174105],[7.10487306763798,8.81656721590434],[7.09251053083636,8.82365306064031],[7.07894189255433,8.82425611093083],[7.06584885893773,8.82682229940963],[7.06480175399781,8.82702752829783],[7.0615965738229,8.82765573172668],[7.05284015744735,8.8290834090721],[7.0430367782248,8.83098697886601],[7.03742125039042,8.83241465531216],[7.0233348409302,8.83231947556339],[7.02133609408554,8.84002892999115],[7.02038430918856,8.8502130228128],[7.01975528827597,8.85557170696876],[7.01989021985781,8.85559310543749],[7.0339466279346,8.85782224420126],[7.03780135514847,8.86260496115011],[7.055790080348,8.86046344693057],[7.06057279639748,8.87035010607258],[7.05293472655643,8.8719205498935],[7.04750955642095,8.87820232697584],[7.04908000024187,8.88655423638897],[7.05557592838642,8.89090864941471],[7.06742564387844,8.88569763034144],[7.07266448437849,8.89574418084931],[7.07796114229291,8.90261030861888],[7.08178862004883,8.90727869565535],[7.08412242461026,8.91012521540642],[7.085113823744,8.91133440785671],[7.08869253283416,8.91689282874108],[7.088863264628,8.91783934271155]]]},"properties":{"FID":5523,"globalid":"e9a1eca7-b4de-491d-903e-170cbbe4556c","uniq_id":492687,"timestamp":1552694400000,"editor":"oluseye.abraham","wardname":"Kinlakwa","wardcode":"FCTKWL04","lganame":"Kwali","lgacode":"15005","statename":"Fct","statecode":"FC","amapcode":"NIE FCT KWL","status":"Operational Validated","source":"INEC","urban":"No","Shape__Area":0.01129803559479825,"Shape__Length":0.51755736602061908}},{"type":"Feature","id":5533,"geometry":{"type":"Polygon","coordinates":[[[7.07957060499945,8.97782159519051],[7.08801331356364,8.97932922136653],[7.09176641288968,8.98189141685543],[7.09278742939642,8.97872960198958],[7.09580695892407,8.96937876072127],[7.097377402745,8.96131238785648],[7.10087521062252,8.9596705594488],[7.10480132062452,8.95210387329519],[7.10647636729055,8.95049862211374],[7.10633979714396,8.95037476928024],[7.10571606424503,8.95013338404846],[7.1047289018174,8.94975135024464],[7.1034858013287,8.94917237210734],[7.10236189338673,8.94864891001924],[7.10083800836742,8.9479391533693],[7.09868810617121,8.94668606860722],[7.09750676212741,8.94599751257522],[7.09659304912998,8.94550258507627],[7.0959377257455,8.94573052544342],[7.09545344801825,8.94589896756332],[7.09484176603473,8.94611172737439],[7.09427761412064,8.94582322126467],[7.09347647106233,8.94541351442223],[7.09274758673178,8.94510739419093],[7.09177658422203,8.94469967485014],[7.09110081744882,8.94458070173806],[7.09026199099816,8.94440304516445],[7.08981539756257,8.94427001834674],[7.08891997497693,8.94400329471631],[7.08821848039861,8.94394641709351],[7.08722109178001,8.9438655482565],[7.08610269308485,8.94377486691661],[7.08508044990288,8.94388194019945],[7.08394226342477,8.94400228028104],[7.08253159765513,8.94419365241515],[7.08211580689903,8.94424818280743],[7.08137042090823,8.94434593821455],[7.08050158138292,8.94432890235703],[7.07991419098715,8.94431738473958],[7.0790861384146,8.94444111616463],[7.07830825182441,8.94462420644203],[7.07758993272927,8.94479327628869],[7.07688093330847,8.94497840442989],[7.07554276098966,8.94534403459954],[7.07342802588272,8.9459989209135],[7.07161272724562,8.94663973823339],[7.0704152979277,8.94739331614869],[7.0696208862949,8.9479425941754],[7.06886929498205,8.94848397615465],[7.06840061329774,8.9488550157464],[7.06631620602815,8.94645651935292],[7.06708715075143,8.94547618098102],[7.06663002175816,8.94440269982476],[7.0659097943016,8.94302533684987],[7.06448211695619,8.94315382658789],[7.06285456618531,8.94431024682046],[7.06295450334773,8.9452382347568],[7.06157549101613,8.94516501285511],[7.05810040271149,8.94499553021961],[7.05648427333063,8.94578075257971],[7.05547062227146,8.94703710817606],[7.05414962520507,8.94981711137063],[7.05301938063997,8.9490735303192],[7.05188913697413,8.94791354337536],[7.04861737818948,8.94345205257019],[7.04689226896306,8.94294641774303],[7.0455121810424,8.94291667626362],[7.04447116721065,8.94208386268019],[7.04253785503801,8.94294641774303],[7.03974198780253,8.9470807306912],[7.03798713619744,8.94919250343133],[7.03584562107858,8.94948993621165],[7.03539947190814,8.9488950697517],[7.03343641735682,8.94948993621165],[7.03207399931568,8.95060343000432],[7.03204707900954,8.95069124520484],[7.03146128760841,8.95260217684904],[7.03153267219511,8.95348257805858],[7.03175028025129,8.95504542260824],[7.03200856374428,8.95655208291237],[7.0341248573763,8.95708365418733],[7.03465309666313,8.95736918893698],[7.03246875223118,8.95938221341845],[7.0309411377234,8.96133813005071],[7.02897522692524,8.96241697836092],[7.02807579066524,8.96384465480702],[7.0335620670358,8.96838542804511],[7.03843996193473,8.96819507124559],[7.04111759979742,8.96834059504249],[7.04281817012253,8.96843301657049],[7.04487164521032,8.96827121414526],[7.04894052258709,8.96841398062077],[7.0504752759133,8.96673646081905],[7.05072511926886,8.96252481516814],[7.05118911368669,8.96181097739475],[7.05582906326072,8.96095437134721],[7.0598265569501,8.96213220443775],[7.06423450931521,8.96526912696868],[7.06704227278271,8.96750582003762],[7.07070664319707,8.97031358440444],[7.07399029911306,8.97335929409621],[7.07746431182858,8.97607187961358],[7.07957060499945,8.97782159519051]]]},"properties":{"FID":5533,"globalid":"8ef8a8ce-1f56-4593-b285-31ad1d214f8b","uniq_id":492695,"timestamp":1552694400000,"editor":"oluseye.abraham","wardname":"Quarters","wardcode":"FCTGWA08","lganame":"Gwagwalada","lgacode":"15003","statename":"Fct","statecode":"FC","amapcode":"NIE FCT GWA","status":"Operational Validated","source":"INEC","urban":"No","Shape__Area":0.0016931446024237573,"Shape__Length":0.22473766043134541}},{"type":"Feature","id":5539,"geometry":{"type":"Polygon","coordinates":[[[7.30386930692305,8.58932838919384],[7.33532621883001,8.63957495801793],[7.42969369900504,8.63410935885986],[7.42969369900504,8.63306140855718],[7.43449688002704,8.63039302831567],[7.44463777481349,8.63199329365563],[7.45003104869397,8.63293145472289],[7.45691299373971,8.63412857107676],[7.46545267080415,8.63306140855718],[7.47559308984927,8.63252735065674],[7.47762346315233,8.63133335135313],[7.44303083380601,8.59328174595584],[7.43571604056285,8.58641471706557],[7.41812706041554,8.56990241966099],[7.39597020056436,8.53844446004382],[7.38028333870517,8.52152081723199],[7.35437624926453,8.53703418637866],[7.30386930692305,8.58932838919384]]]},"properties":{"FID":5539,"globalid":"b0085168-0fda-47b4-acc2-bc822ed9c933","uniq_id":492703,"timestamp":1552694400000,"editor":"oluseye.abraham","wardname":"Kujekwa","wardcode":"FCTKUJ07","lganame":"Kuje","lgacode":"15004","statename":"Fct","statecode":"FC","amapcode":"NIE FCT KUJ","status":"Operational Not Validated","source":"INEC","urban":"No","Shape__Area":0.011328340778852919,"Shape__Length":0.45422745642369666}},{"type":"Feature","id":5545,"geometry":{"type":"Polygon","coordinates":[[[7.33532621883001,8.63957495801793],[7.30386930692305,8.58932838919384],[7.23672478442131,8.57287705503211],[7.18081803642332,8.58019456422778],[7.18316068401839,8.59036561957771],[7.18364113782832,8.5993292487459],[7.20902275429671,8.59610233285645],[7.22853378620533,8.60416605541917],[7.2436610880888,8.62914892058626],[7.2527919327016,8.65792274563825],[7.25635712857866,8.69081728768771],[7.23674855170435,8.70197728072696],[7.2314007583384,8.72135963493923],[7.24328474429558,8.74661392089575],[7.265864317884,8.77499847799743],[7.33776243638738,8.77000686742304],[7.37192889680119,8.75444436111843],[7.38873453597012,8.72921773201278],[7.34281312972223,8.68045973362985],[7.33532621883001,8.63957495801793]]]},"properties":{"FID":5545,"globalid":"2bd8d1e0-0b0c-42f6-ad0b-560d5e7b423e","uniq_id":492708,"timestamp":1552694400000,"editor":"oluseye.abraham","wardname":"Kabi","wardcode":"FCTKUJ05","lganame":"Kuje","lgacode":"15004","statename":"Fct","statecode":"FC","amapcode":"NIE FCT KUJ","status":"Operational Validated","source":"INEC","urban":"No","Shape__Area":0.020749384394509462,"Shape__Length":0.69870699284778337}},{"type":"Feature","id":5546,"geometry":{"type":"Polygon","coordinates":[[[6.95069841230196,8.47150652710457],[6.9508366093221,8.47156266728331],[6.95325143470598,8.47239017126941],[6.95422957333619,8.47278238629815],[6.95601459809529,8.4874036396663],[6.9602215286007,8.49043611763278],[6.97098842077907,8.49269282961046],[6.98412451933115,8.49963133301964],[6.98576973278699,8.49449413029993],[6.98027338940545,8.47656944132672],[6.98203659391373,8.46564813825103],[6.98305108673833,8.45936415243375],[6.98353215928176,8.45638428300828],[6.98253836435407,8.45175530516326],[6.97852867405913,8.45429165683453],[6.97472579815712,8.45511449423856],[6.97145770231117,8.45770054694276],[6.96848670469774,8.46046290184148],[6.96545628887668,8.46181468539947],[6.96230703214388,8.46234364324459],[6.95767227795329,8.46087431469789],[6.95363172202639,8.46058044772951],[6.94849546269552,8.46391816908829],[6.94944618189584,8.46563726814549],[6.94870343271731,8.46719473744724],[6.94837662268304,8.46839956728627],[6.94903024275158,8.47010395343477],[6.94977180302635,8.47113010776832],[6.95069841230196,8.47150652710457]]]},"properties":{"FID":5546,"globalid":"89f57bae-124d-481c-ade4-9bb25ae3abce","uniq_id":492709,"timestamp":1552694400000,"editor":"oluseye.abraham","wardname":"Nuku","wardcode":"FCTABJ07","lganame":"Abaji","lgacode":"15001","statename":"Fct","statecode":"FC","amapcode":"NIE FCT ABJ","status":"Operational Validated","source":"INEC","urban":"No","Shape__Area":0.001015155890911501,"Shape__Length":0.1462920123581205}},{"type":"Feature","id":5559,"geometry":{"type":"Polygon","coordinates":[[[7.10561942399727,8.91320169000602],[7.11447002187407,8.92464981773497],[7.115860342281,8.92644817944],[7.11808185119651,8.92481940918844],[7.12300733462087,8.92589016629819],[7.1267192935606,8.92746061101843],[7.12986018300109,8.92503356025065],[7.13294744496864,8.92553806283138],[7.14682388341555,8.91646480630584],[7.16176796012331,8.91112708984338],[7.16497039826533,8.90899276840162],[7.17183842810101,8.90837286211791],[7.19065470585002,8.90667451491697],[7.20706943940314,8.91322068818425],[7.21715922841571,8.91798146707112],[7.22890555065067,8.91991551578849],[7.23428727094085,8.91891383020914],[7.2291000317411,8.91423845723904],[7.22562040096079,8.91074448407073],[7.22271120116108,8.90741954297755],[7.21951678497169,8.90279838923431],[7.21717801705188,8.89899434601233],[7.21774844803252,8.89724729242863],[7.21916026583364,8.89596517305432],[7.21908896218588,8.89251329265437],[7.22108547241669,8.89011809227617],[7.22201258801056,8.88773821184907],[7.22177086643239,8.8861239791384],[7.22150115975074,8.88474130386811],[7.221625062047,8.88381537897664],[7.22195404124608,8.88309501842042],[7.22286487371503,8.8820924847804],[7.22307288420632,8.88176952024719],[7.22282546092634,8.88133303609078],[7.21888864719335,8.88267615198288],[7.21840368058542,8.88286702229527],[7.21734580536469,8.8833513530825],[7.21676521564223,8.88219969386085],[7.21614655581897,8.88086719626415],[7.21593716396899,8.88039130381566],[7.21583767107171,8.87983368457691],[7.21590619941162,8.87829179423096],[7.2157253601373,8.87712395530633],[7.2158966809871,8.87645009059923],[7.21602231717623,8.87550211433114],[7.21646901313449,8.87477103205754],[7.2160630016063,8.8701794938886],[7.21145795741887,8.86166654917196],[7.18711948437675,8.83800792672452],[7.17804622695184,8.84814929995031],[7.16363573060454,8.85882282271513],[7.15669774970144,8.86095809923694],[7.15029287341741,8.86682891762052],[7.13214683520835,8.88497543336962],[7.12307357778343,8.89725112983581],[7.120918274259,8.90091514591728],[7.10294464597865,8.90613008603469],[7.10561942399727,8.91320169000602]]]},"properties":{"FID":5559,"globalid":"1d6eaa51-e35b-409d-bf92-39c8e9f3b630","uniq_id":492723,"timestamp":1552694400000,"editor":"oluseye.abraham","wardname":"Chibiri","wardcode":"FCTKUJ01","lganame":"Kuje","lgacode":"15004","statename":"Fct","statecode":"FC","amapcode":"NIE FCT KUJ","status":"Operational Validated","source":"INEC","urban":"No","Shape__Area":0.005477175913917165,"Shape__Length":0.37234789302624793}},{"type":"Feature","id":5573,"geometry":{"type":"Polygon","coordinates":[[[7.53359777092044,9.03364858321561],[7.53424399406515,9.03317738792617],[7.53472948587711,9.03251546801448],[7.53597381483974,9.02813257975481],[7.53680093391603,9.02658999513221],[7.53680002200343,9.0245870907217],[7.53741639395145,9.02242769977858],[7.53946331298158,9.0182976046508],[7.54165851492854,9.01777452837183],[7.53833821703512,9.00747011885096],[7.54119950095622,9.00137186102262],[7.54466315977703,8.99244739643024],[7.54135009513084,8.97846529213956],[7.53714430136847,8.96901917219708],[7.52826289002041,8.95040304126741],[7.521030134733,8.93729548270039],[7.50731587912458,8.9342842530159],[7.50426248382661,8.92776268430049],[7.49573610863456,8.92874255412562],[7.49062361119076,8.93254437512286],[7.49206018732781,8.93660870193008],[7.49437350623236,8.94737814638438],[7.47390486901452,8.95045591600774],[7.47241831935003,8.95912861899063],[7.47203880814453,8.96060176336073],[7.47065966271333,8.96261385884259],[7.46714375867759,8.96592320209413],[7.46476013527206,8.96827540858328],[7.46422833826722,8.96938439587319],[7.46347628380352,8.97142091424382],[7.46322305270178,8.97315981907042],[7.46298928562709,8.97903626900865],[7.45714602696762,8.97993769996492],[7.45523995795776,8.98056430709715],[7.45302078098433,8.98168851541271],[7.45271312381169,8.98754392301367],[7.45332031637952,8.99093772519592],[7.45427103468057,8.99457647662314],[7.4552811738871,8.99663059472624],[7.45795507057011,9.00044535516906],[7.46265778293036,9.00676300710717],[7.46037897011342,9.00869741915062],[7.46196091806195,9.00957874756119],[7.46325816043583,9.01183591909245],[7.46568570583071,9.01674900806034],[7.467305865973,9.01861498619269],[7.46922433843253,9.01888265501054],[7.47160881259668,9.02024583837476],[7.47393764660518,9.02211861088523],[7.47462694907449,9.0231945489893],[7.47556722174994,9.02482123281368],[7.48124352936543,9.02062074595074],[7.48476130668899,9.02355698476708],[7.48791578938221,9.02612996402667],[7.49087252464733,9.02809939836857],[7.49146197089328,9.02774260044072],[7.49309720727035,9.02648441562332],[7.4945232856212,9.0254327960867],[7.49677411333471,9.0244116887485],[7.49923895361485,9.02802580144964],[7.50027893772284,9.02985258263061],[7.50275270917024,9.02897715107468],[7.50367015525353,9.03144410476165],[7.50449870964781,9.03443935079542],[7.50567465596066,9.03713322142107],[7.50740226620167,9.03978642290514],[7.50864758891515,9.04122366184259],[7.51346918715331,9.04629198188951],[7.51464880180083,9.0473229835689],[7.51554473969804,9.04705962879888],[7.51619945873807,9.04662608092895],[7.51632332686012,9.04595021702892],[7.51639824578245,9.04558322618499],[7.51661458309655,9.04521981284415],[7.51671100031245,9.04464989717508],[7.51692995915033,9.04430770423721],[7.51706190588231,9.04418945058273],[7.51724539186137,9.04417548680931],[7.51758443267545,9.04431647172783],[7.51796768326204,9.04420528044938],[7.51823760308298,9.04397409442896],[7.51827427473802,9.04373653491319],[7.51812282980478,9.04335861820573],[7.51820464742661,9.04270256816903],[7.51886551243348,9.0413322127115],[7.51918262507814,9.03957416041919],[7.51979820292479,9.03894133897165],[7.52026630544572,9.03859894818294],[7.52311249784356,9.03770598973966],[7.52427500198979,9.03758485285874],[7.52480813628648,9.03751229735468],[7.5251873696015,9.03728525271231],[7.52583585094379,9.03661153639337],[7.52674637674392,9.03604660476702],[7.52775983085155,9.03559221331005],[7.52883317800882,9.03569694116095],[7.52984430017437,9.03565301017835],[7.53094303069633,9.03489940798136],[7.53200828395518,9.03410356822513],[7.53359777092044,9.03364858321561]]]},"properties":{"FID":5573,"globalid":"1de02876-14bb-4703-ad0c-a8f63096ee83","uniq_id":492736,"timestamp":1552694400000,"editor":"oluseye.abraham","wardname":"Garki 1","wardcode":"FCTABC02","lganame":"Municipal Area Council","lgacode":"15006","statename":"Fct","statecode":"FC","amapcode":"NIE FCT ABC","status":"Operational Validated","source":"INEC","urban":"Yes","Shape__Area":0.0066812265397544479,"Shape__Length":0.35924280828949134}},{"type":"Feature","id":5576,"geometry":{"type":"Polygon","coordinates":[[[7.54165851492854,9.01777452837183],[7.53946331298158,9.0182976046508],[7.53741639395145,9.02242769977858],[7.53680002200343,9.0245870907217],[7.53680093391603,9.02658999513221],[7.53597381483974,9.02813257975481],[7.53472948587711,9.03251546801448],[7.53424399406515,9.03317738792617],[7.53359777092044,9.03364858321561],[7.5339167379671,9.03436641757617],[7.534965414922,9.03537997240784],[7.5356979801777,9.03669867890096],[7.53602792255066,9.03788246280544],[7.53657176687358,9.04074399314084],[7.53912695484513,9.04369388276655],[7.54001815601316,9.04308392388401],[7.54258509812382,9.04216404783261],[7.5435297810746,9.04092458330291],[7.54387786726983,9.03976897335946],[7.54394225333238,9.03416494065954],[7.54424645710833,9.03293229568897],[7.54472355914498,9.03186653341385],[7.54689198557674,9.02962879173538],[7.54824529798219,9.02868376434429],[7.54912154432384,9.0281366114155],[7.55011584556985,9.02777824507001],[7.55072536828118,9.02767472410926],[7.55410085576995,9.02749064997357],[7.55470806722354,9.02742238603435],[7.55534729903866,9.02727969690056],[7.55613747576393,9.0269694406872],[7.55835021269223,9.02557238255946],[7.55940330172103,9.0270631392525],[7.55889995836645,9.02882260437974],[7.55814094944532,9.03060594830589],[7.55805846902319,9.03189554194574],[7.5583290030811,9.03568555034792],[7.55907056335587,9.04069935439173],[7.55974691738635,9.04982384709291],[7.56082256680804,9.05661717834016],[7.57223866518228,9.05839116841776],[7.57610820692827,9.06471124043145],[7.58979525804477,9.06546224538636],[7.58991702265251,9.05852217985478],[7.59018722575991,9.030439072805],[7.59070778933307,9.01344299769625],[7.58963974188066,9.01340052631326],[7.58871873268339,9.01322446693564],[7.58764917436997,9.01316577987689],[7.58666874516649,9.01348855555244],[7.58595570599107,9.01348855555244],[7.58494556678454,9.01337118233425],[7.58292528927075,9.01281366292028],[7.58102702098029,9.01219041385656],[7.57862051342602,9.01192632613908],[7.57778863423812,9.01257187479223],[7.57725385508138,9.01283596430835],[7.57668936592154,9.01251318863279],[7.57615458586548,9.0129533357279],[7.57529299667448,9.01374559977967],[7.57466908840775,9.01383362901879],[7.57410459834858,9.01386297209854],[7.57267851999774,9.01403903057684],[7.57238141996663,9.01486063590966],[7.57181693080673,9.01503669438796],[7.57143070166558,9.01500735130827],[7.57092563161268,9.01562355238508],[7.57050969336768,9.01568223764519],[7.56970752418295,9.01606369498359],[7.56970752418295,9.01656252374153],[7.56929158413936,9.01673858132051],[7.56845970495147,9.01685595184074],[7.56807347491099,9.01738412187979],[7.56771695577294,9.0182644052781],[7.56736043573557,9.01864585991854],[7.56709304660689,9.0189979723786],[7.56706333660372,9.01970219370133],[7.56649884744388,9.02034773066327],[7.56587493827783,9.02061181298484],[7.56539957822798,9.02111063634686],[7.5651513608467,9.02169839996122],[7.56410794762371,9.02193944165197],[7.56274462756255,9.0226947219839],[7.5607904124476,9.02398945075259],[7.55950789017703,9.02244696595477],[7.55892081904062,9.02290389709719],[7.55802477322476,9.02164466816697],[7.55760265483872,9.02078867275907],[7.55657922365231,9.0200181938846],[7.55531335232939,9.01882327007792],[7.55321175811622,9.01921510739135],[7.55192828796015,9.01932074085954],[7.55039525323838,9.01819398206669],[7.54953960586818,9.01801792628629],[7.5484700475547,9.01829961643421],[7.54736483741738,9.0182644052781],[7.54579302123102,9.01839931707485],[7.54433276504511,9.01899596059513],[7.54351442515065,9.018686939151],[7.54165851492854,9.01777452837183]]]},"properties":{"FID":5576,"globalid":"637b3ad8-67b5-458e-b612-a5fbec10c0cd","uniq_id":492738,"timestamp":1552694400000,"editor":"oluseye.abraham","wardname":"Nyanya 1","wardcode":"FCTABC10","lganame":"Municipal Area Council","lgacode":"15006","statename":"Fct","statecode":"FC","amapcode":"NIE FCT ABC","status":"Operational Validated","source":"INEC","urban":"Yes","Shape__Area":0.0017280007255706664,"Shape__Length":0.23631111182082143}},{"type":"Feature","id":5584,"geometry":{"type":"Polygon","coordinates":[[[7.5091009884199,9.35503127457372],[7.51667714173675,9.31764605692001],[7.5327182213689,9.29045967197635],[7.51921137910193,9.28793801972387],[7.50970418889727,9.28437263498915],[7.49962656861129,9.27592815386129],[7.48710039926408,9.26750580504893],[7.47373091405046,9.26985156969425],[7.45560783463389,9.26486680026267],[7.44980889816219,9.28456028662799],[7.44391444109863,9.29732044158516],[7.43376343343573,9.34347000583614],[7.47373424603865,9.35034087123427],[7.49693178697243,9.35240465704931],[7.5091009884199,9.35503127457372]]]},"properties":{"FID":5584,"globalid":"21784ef4-9065-44c5-9738-290faf293e97","uniq_id":492746,"timestamp":1552694400000,"editor":"oluseye.abraham","wardname":"Igu","wardcode":"FCTBWR04","lganame":"Bwari","lgacode":"15002","statename":"Fct","statecode":"FC","amapcode":"NIE FCT BWR","status":"Operational Validated","source":"INEC","urban":"No","Shape__Area":0.0058957288055339063,"Shape__Length":0.31235109502254282}},{"type":"Feature","id":5592,"geometry":{"type":"Polygon","coordinates":[[[6.83273172428972,8.58235836005031],[6.80290489294651,8.57968641579549],[6.77996208228433,8.58027811933977],[6.7800330945517,8.58640030093318],[6.78116850302405,8.68321250895019],[6.78121401501483,8.68709320858477],[6.78129144844166,8.74392734557057],[6.79296970368893,8.74407386941357],[6.79457092320956,8.73927116413296],[6.80257654237357,8.74087238275433],[6.81004858027779,8.73660182971071],[6.81645345656182,8.73340034485011],[6.81644089033489,8.73333751911127],[6.81538581830091,8.72806263018629],[6.81058263817823,8.72592830694583],[6.81004858027779,8.71952342976255],[6.81004858027779,8.71525383000028],[6.80364417973516,8.71151733395783],[6.79884052297183,8.70564651467498],[6.80150937985405,8.69870853377188],[6.80844783829713,8.69283771538829],[6.81164979889917,8.69176959958742],[6.81805467608251,8.69604015442962],[6.82392549536536,8.69764041887026],[6.82712793440669,8.69337081910805],[6.82499265698556,8.68749999982521],[6.82285785710445,8.68483161868431],[6.81858825734224,8.68216323934206],[6.81218385679961,8.67735958078009],[6.8073801991369,8.67629241915989],[6.80364417973516,8.67575836215872],[6.79990816123268,8.67308998101788],[6.80311060027401,8.66455078059408],[6.80791378039669,8.65707874268986],[6.80311060027401,8.65227508502721],[6.80417776099495,8.64640426574431],[6.81218385679961,8.64640426574431],[6.8148522379405,8.63893222784009],[6.81111621943802,8.63572978969808],[6.80417776099495,8.63519573269696],[6.80311060027401,8.63092613203543],[6.80791378039669,8.62612247527204],[6.81431865668071,8.62558937065296],[6.81645345656182,8.62131977089075],[6.81591987620135,8.6165161132281],[6.81325101931913,8.61438083580697],[6.81325101931913,8.6106452939452],[6.81752061818202,8.60904407532388],[6.82232427584472,8.60744285580319],[6.82552671398673,8.60477447466235],[6.82979631374894,8.60210609442078],[6.83486652417082,8.59997081879828],[6.83646774279214,8.59356594071562],[6.83379936165124,8.5860939028114],[6.83273172428972,8.58235836005031]]]},"properties":{"FID":5592,"globalid":"07def4f9-9c2e-4b03-a8c2-54aadd95aa31","uniq_id":492761,"timestamp":1552694400000,"editor":"oluseye.abraham","wardname":"Yaba","wardcode":"FCTABJ10","lganame":"Abaji","lgacode":"15001","statename":"Fct","statecode":"FC","amapcode":"NIE FCT ABJ","status":"Operational Validated","source":"INEC","urban":"No","Shape__Area":0.0053063033527678272,"Shape__Length":0.50434499604072569}},{"type":"Feature","id":5594,"geometry":{"type":"Polygon","coordinates":[[[7.10647636729055,8.95049862211374],[7.10480132062452,8.95210387329519],[7.10087521062252,8.9596705594488],[7.097377402745,8.96131238785648],[7.09580695892407,8.96937876072127],[7.09278742939642,8.97872960198958],[7.09176641288968,8.98189141685543],[7.09188783035916,8.98197430826775],[7.10114222833124,8.98829217514384],[7.12434197260399,9.00685197074188],[7.11256364079941,9.03076555368739],[7.10867698225695,9.0494921807196],[7.11575026076599,9.04706297427691],[7.12550605056384,9.04063842892043],[7.1498994703843,9.03341079167473],[7.15946332057581,9.03057703600143],[7.16405332000477,9.02921701735153],[7.16719610611545,9.02711314965217],[7.16676126861768,9.02671309613254],[7.15482950168018,9.01573562589846],[7.16722648071755,9.00874694301706],[7.16958436822404,9.00620377628331],[7.16687535211588,9.00194370663678],[7.16394861463692,9.00130125165151],[7.16341323563239,8.99933819710014],[7.16170002443664,8.9990169700572],[7.15987973636078,9.00183663065604],[7.15420472197042,9.00080156494033],[7.15395487771548,9.00005203487353],[7.15523978678675,8.99940958078759],[7.1561558802897,8.99587608241529],[7.15558480899176,8.99349662017295],[7.15320534764874,8.99240206790114],[7.15253909930004,8.99026055278233],[7.1523963310259,8.97664797542376],[7.15158731530244,8.96974959886495],[7.14735187359014,8.97003513541324],[7.14502000167181,8.96894058314143],[7.14444893217251,8.96717978072235],[7.14297366630171,8.96441960667954],[7.14278330860287,8.96132630666375],[7.13983277686123,8.96085041511463],[7.13659671036993,8.95937514924378],[7.13236126955701,8.95851854319625],[7.13041011213704,8.95737640239912],[7.131076361385,8.95456863893156],[7.13109205095742,8.95107090299985],[7.13198055595797,8.94871516487302],[7.13074323631133,8.94785855792617],[7.1298866302638,8.94933382379696],[7.12888725684149,8.94923864494757],[7.1284589538177,8.94752543375182],[7.12717404474643,8.94719230957747],[7.12308137220759,8.95352167518519],[7.1189292122134,8.95672601629269],[7.11604520871947,8.95520696692802],[7.11382824227962,8.95403925121053],[7.11252917967795,8.95335501012568],[7.11113647696686,8.9526214457232],[7.10720761414012,8.95082224764866],[7.10648430740491,8.95049101294995],[7.10647636729055,8.95049862211374]]]},"properties":{"FID":5594,"globalid":"6e40381c-595e-413c-b43c-7ab3b9554e28","uniq_id":492757,"timestamp":1552694400000,"editor":"oluseye.abraham","wardname":"Gwako","wardcode":"FCTGWA03","lganame":"Gwagwalada","lgacode":"15003","statename":"Fct","statecode":"FC","amapcode":"NIE FCT GWA","status":"Operational Validated","source":"INEC","urban":"No","Shape__Area":0.0040216153174483793,"Shape__Length":0.34621689430015989}},{"type":"Feature","id":5619,"geometry":{"type":"Polygon","coordinates":[[[7.18364113782832,8.5993292487459],[7.18316068401839,8.59036561957771],[7.18081803642332,8.58019456422778],[7.14486503589274,8.58311930970842],[7.11695920860063,8.57822601302013],[7.07777646561146,8.55436845514015],[7.04479840442286,8.57375839513389],[7.02533877686312,8.58354031293516],[7.01639567562,8.58803580980481],[7.04044416316765,8.61699558767629],[7.05822730784405,8.62328638495876],[7.08389671905837,8.64114542342259],[7.1172027593999,8.66561794311366],[7.12530702340047,8.67442326012542],[7.13873636029484,8.63056105494877],[7.18364113782832,8.5993292487459]]]},"properties":{"FID":5619,"globalid":"ad7064bc-c908-48a3-8ffe-3bd3a302738f","uniq_id":492779,"timestamp":1552694400000,"editor":"oluseye.abraham","wardname":"Yenche","wardcode":"FCTKUJ10","lganame":"Kuje","lgacode":"15004","statename":"Fct","statecode":"FC","amapcode":"NIE FCT KUJ","status":"Operational Validated","source":"INEC","urban":"No","Shape__Area":0.0092511261005405743,"Shape__Length":0.44138135660826455}},{"type":"Feature","id":5620,"geometry":{"type":"Polygon","coordinates":[[[7.115860342281,8.92644817944],[7.11447002187407,8.92464981773497],[7